{
"type": "FeatureCollection",
"name": "adhemar_garcia",
"crs": { "type": "name", "properties": { "name": "urn:ogc:def:crs:EPSG::4674" } },
"features": [
{ "type": "Feature", "properties": { "bairro": "Adhemar Garcia" }, "geometry": { "type": "MultiPolygon", "coordinates": [ [ [ [ -48.79747277, -26.32330442000001 ], [ -48.80232154, -26.32899948 ], [ -48.80260750999998, -26.32943719 ], [ -48.80237406, -26.32969399000001 ], [ -48.802601670000016, -26.330160880000019 ], [ -48.80542722, -26.328161970000018 ], [ -48.80803614, -26.32512204 ], [ -48.807925259999976, -26.32493601 ], [ -48.80813118, -26.32468896000001 ], [ -48.80811822, -26.32432797 ], [ -48.80897628, -26.32218833 ], [ -48.80885514, -26.32099599 ], [ -48.809295060000011, -26.31501099 ], [ -48.8018895, -26.31127616 ], [ -48.793723879999988, -26.315027240000013 ], [ -48.79479171, -26.31556036 ], [ -48.79578428, -26.3158062 ], [ -48.7958396, -26.31609199 ], [ -48.79549406000001, -26.31661454 ], [ -48.795135879999989, -26.31631017 ], [ -48.79494843, -26.316248710000014 ], [ -48.794757910000015, -26.31635012 ], [ -48.79478864, -26.316537569999987 ], [ -48.79547391, -26.3170231 ], [ -48.79552923, -26.31719212 ], [ -48.795320259999983, -26.31785281 ], [ -48.79543396, -26.31819084 ], [ -48.795320259999983, -26.31848584 ], [ -48.79433691, -26.31864564000001 ], [ -48.79428467, -26.31876549 ], [ -48.79430925, -26.31898674 ], [ -48.79479786000001, -26.31887304 ], [ -48.79500682, -26.319377009999986 ], [ -48.79466572, -26.3197304 ], [ -48.79472718, -26.31999775 ], [ -48.79455202, -26.32024666 ], [ -48.79460732999997, -26.32038188 ], [ -48.79517923, -26.3201556 ], [ -48.79498072, -26.32062636 ], [ -48.79554506, -26.320830540000014 ], [ -48.79562446, -26.32114816 ], [ -48.79747277, -26.32330442000001 ] ] ] ] } }
]
}
