{
"type": "FeatureCollection",
"name": "américa",
"crs": { "type": "name", "properties": { "name": "urn:ogc:def:crs:EPSG::4674" } },
"features": [
{ "type": "Feature", "properties": { "bairro": "América" }, "geometry": { "type": "MultiPolygon", "coordinates": [ [ [ [ -48.850549849999986, -26.30035177000001 ], [ -48.85057079, -26.30127639 ], [ -48.85238238, -26.301385979999989 ], [ -48.8559453, -26.30246103 ], [ -48.85917752000001, -26.30316352 ], [ -48.86019114, -26.29768599 ], [ -48.8620131, -26.29677897 ], [ -48.86163222, -26.29380303 ], [ -48.86444296, -26.29361313 ], [ -48.8633721, -26.278230960000013 ], [ -48.84841626, -26.277390990000015 ], [ -48.84757314, -26.27893899 ], [ -48.844676220000011, -26.283357 ], [ -48.84279018, -26.28557397 ], [ -48.8426451, -26.29268001 ], [ -48.842458259999987, -26.294976 ], [ -48.843389219999978, -26.29502298000002 ], [ -48.85002644, -26.29459544 ], [ -48.850549849999986, -26.30035177000001 ] ] ] ] } }
]
}
