{
"type": "FeatureCollection",
"name": "anita_garibaldi",
"crs": { "type": "name", "properties": { "name": "urn:ogc:def:crs:EPSG::4674" } },
"features": [
{ "type": "Feature", "properties": { "bairro": "Anita Garibaldi" }, "geometry": { "type": "MultiPolygon", "coordinates": [ [ [ [ -48.85467155, -26.32409243 ], [ -48.85556074, -26.3248386 ], [ -48.858242609999969, -26.32577658 ], [ -48.86080452, -26.32643798 ], [ -48.86240288, -26.326223160000019 ], [ -48.86312341, -26.32632462 ], [ -48.864490260000011, -26.32717197 ], [ -48.866377379999989, -26.32450797 ], [ -48.87140334, -26.31843198 ], [ -48.870860100000016, -26.318561039999985 ], [ -48.866397179999986, -26.31883896 ], [ -48.86554642, -26.318750879999989 ], [ -48.86484724, -26.31832707 ], [ -48.86039167, -26.313627830000016 ], [ -48.85950606, -26.31330396 ], [ -48.85867626, -26.31324996 ], [ -48.85629948, -26.31170674 ], [ -48.855739980000017, -26.31095799 ], [ -48.8495373, -26.308442970000023 ], [ -48.848215379999985, -26.30748798 ], [ -48.84774738, -26.30731797 ], [ -48.84549566, -26.307230929999989 ], [ -48.84478026, -26.322264 ], [ -48.8470927, -26.3215587 ], [ -48.84812754, -26.321385379999985 ], [ -48.851122769999975, -26.321468910000025 ], [ -48.85228262, -26.322018320000019 ], [ -48.85467155, -26.32409243 ] ] ] ] } }
]
}
