{
"type": "FeatureCollection",
"name": "atiradores",
"crs": { "type": "name", "properties": { "name": "urn:ogc:def:crs:EPSG::4674" } },
"features": [
{ "type": "Feature", "properties": { "bairro": "Atiradores" }, "geometry": { "type": "MultiPolygon", "coordinates": [ [ [ [ -48.8736681, -26.30514897 ], [ -48.86510622, -26.306605980000022 ], [ -48.86133277, -26.3067261 ], [ -48.860841299999983, -26.30758401 ], [ -48.86039526, -26.307675990000018 ], [ -48.85945818, -26.30698497 ], [ -48.859054259999986, -26.30696796 ], [ -48.85917752000001, -26.30316352 ], [ -48.8559453, -26.30246103 ], [ -48.85238238, -26.301385979999989 ], [ -48.85057079, -26.30127639 ], [ -48.850693149999984, -26.30275735 ], [ -48.850587749999988, -26.303065120000021 ], [ -48.850189719999989, -26.303425239999981 ], [ -48.85262403, -26.305520930000011 ], [ -48.8495373, -26.308442970000023 ], [ -48.855739980000017, -26.31095799 ], [ -48.85629948, -26.31170674 ], [ -48.85867626, -26.31324996 ], [ -48.85950606, -26.31330396 ], [ -48.86039167, -26.313627830000016 ], [ -48.86484724, -26.31832707 ], [ -48.86554642, -26.318750879999989 ], [ -48.866397179999986, -26.31883896 ], [ -48.870860100000016, -26.318561039999985 ], [ -48.87140334, -26.31843198 ], [ -48.87299526, -26.31634596 ], [ -48.873155099999984, -26.315601030000018 ], [ -48.87321522, -26.31368304 ], [ -48.873529140000016, -26.31278502 ], [ -48.87417210000001, -26.31212802 ], [ -48.87702834, -26.31017898 ], [ -48.877288259999972, -26.309944980000012 ], [ -48.87745134, -26.30938698 ], [ -48.87749418, -26.30847402 ], [ -48.877125180000014, -26.30721096000002 ], [ -48.876800099999983, -26.306611019999988 ], [ -48.874944299999989, -26.305451009999988 ], [ -48.8736681, -26.30514897 ] ] ] ] } }
]
}
