{
"type": "FeatureCollection",
"name": "aventureiro",
"crs": { "type": "name", "properties": { "name": "urn:ogc:def:crs:EPSG::4674" } },
"features": [
{ "type": "Feature", "properties": { "bairro": "Aventureiro" }, "geometry": { "type": "MultiPolygon", "coordinates": [ [ [ [ -48.80468237, -26.25529179 ], [ -48.80693611, -26.255863020000017 ], [ -48.80779308000001, -26.25562796 ], [ -48.80905617, -26.25563855 ], [ -48.80912330000001, -26.25599656 ], [ -48.80945204, -26.255960410000018 ], [ -48.8114027, -26.25423173 ], [ -48.812880299999982, -26.255454029999989 ], [ -48.81424326, -26.25733296 ], [ -48.81515839999998, -26.25628662 ], [ -48.819150649999983, -26.25956603 ], [ -48.81951006, -26.258769990000012 ], [ -48.822640259999986, -26.26125903 ], [ -48.83162406, -26.260504020000017 ], [ -48.831017100000011, -26.24681601 ], [ -48.82374726, -26.24739804 ], [ -48.82120459, -26.24805213 ], [ -48.8211818, -26.24738352 ], [ -48.82088928, -26.24642619 ], [ -48.818328799999982, -26.23904106 ], [ -48.81746644, -26.23529911 ], [ -48.817520339999987, -26.234442 ], [ -48.81143238, -26.233013970000027 ], [ -48.80840226, -26.23214799 ], [ -48.80799114, -26.23182003 ], [ -48.80576706, -26.22921903 ], [ -48.803521380000014, -26.229744 ], [ -48.79112190999998, -26.241976170000019 ], [ -48.79265591, -26.24891543 ], [ -48.79359269, -26.25245572 ], [ -48.79485795, -26.25463951 ], [ -48.795673729999983, -26.25653738 ], [ -48.79650687, -26.256312690000016 ], [ -48.79764395, -26.25578253 ], [ -48.797934840000011, -26.255881220000013 ], [ -48.798745180000012, -26.256696759999986 ], [ -48.79899971, -26.25654612000001 ], [ -48.7990153, -26.2552371 ], [ -48.799119189999978, -26.25512802 ], [ -48.799358130000023, -26.255195550000014 ], [ -48.79981525, -26.256047450000011 ], [ -48.8000542, -26.25609939 ], [ -48.80041262, -26.25479038 ], [ -48.800646369999988, -26.25471246 ], [ -48.80114958, -26.25537548 ], [ -48.80182033, -26.255304630000015 ], [ -48.80221296, -26.255014880000012 ], [ -48.80298547000001, -26.25558079000001 ], [ -48.803217659999987, -26.25557994 ], [ -48.8036488, -26.25526827 ], [ -48.80468237, -26.25529179 ] ] ] ] } }
]
}
