{
"type": "FeatureCollection",
"name": "boa_vista",
"crs": { "type": "name", "properties": { "name": "urn:ogc:def:crs:EPSG::4674" } },
"features": [
{ "type": "Feature", "properties": { "bairro": "Boa Vista" }, "geometry": { "type": "MultiPolygon", "coordinates": [ [ [ [ -48.8232951, -26.309934 ], [ -48.82335017999997, -26.310408030000012 ], [ -48.82365438, -26.31105603 ], [ -48.82404138, -26.311505040000014 ], [ -48.82809995, -26.31385679 ], [ -48.82902413999998, -26.31424698 ], [ -48.830115299999989, -26.31437199 ], [ -48.8306751, -26.31428802 ], [ -48.8310441, -26.31310299 ], [ -48.83149518, -26.31233799 ], [ -48.83268426, -26.311795020000012 ], [ -48.8350851, -26.310060990000032 ], [ -48.83541306, -26.30867904 ], [ -48.83564526, -26.30825901 ], [ -48.839425060000011, -26.30530425000002 ], [ -48.837765299999987, -26.30394504 ], [ -48.836274179999975, -26.305416 ], [ -48.83569422, -26.305714980000012 ], [ -48.83516934, -26.30589003 ], [ -48.83470026, -26.305865010000012 ], [ -48.83392734, -26.30551599 ], [ -48.83351226, -26.30511702 ], [ -48.83348526, -26.304045030000015 ], [ -48.8326191, -26.30330604 ], [ -48.83268426, -26.30205 ], [ -48.8333193, -26.300802959999988 ], [ -48.83337438, -26.29990503 ], [ -48.83320914, -26.299730969999978 ], [ -48.83271126, -26.29970604 ], [ -48.83188506, -26.299982970000013 ], [ -48.83243514, -26.29743597 ], [ -48.82687026, -26.292252960000013 ], [ -48.815280059999971, -26.28355797 ], [ -48.81507018, -26.283513960000011 ], [ -48.812354699999979, -26.2812675 ], [ -48.81112818, -26.28269397 ], [ -48.81085818, -26.28279396 ], [ -48.81064722, -26.282599020000013 ], [ -48.80992614, -26.28428499 ], [ -48.809747219999977, -26.28439704 ], [ -48.809202180000014, -26.28435798 ], [ -48.8097033, -26.284721040000012 ], [ -48.81007914, -26.285463 ], [ -48.811194060000012, -26.28913896 ], [ -48.8133591, -26.291396970000012 ], [ -48.81520734, -26.29403802 ], [ -48.81599106, -26.29452798 ], [ -48.81466338, -26.295380009999988 ], [ -48.814089179999989, -26.295130980000014 ], [ -48.810727139999976, -26.298335970000011 ], [ -48.809844059999989, -26.299431 ], [ -48.80736329999997, -26.303301 ], [ -48.8055914, -26.30497297 ], [ -48.809354829999982, -26.306630890000015 ], [ -48.81013021, -26.306832620000016 ], [ -48.810586269999988, -26.310713440000018 ], [ -48.8148081, -26.310970980000011 ], [ -48.815963339999989, -26.311428990000028 ], [ -48.81703434, -26.31127599000002 ], [ -48.81804918, -26.31066498 ], [ -48.818978340000015, -26.30954601 ], [ -48.819824339999982, -26.309010960000016 ], [ -48.8205573, -26.308756979999988 ], [ -48.82176834, -26.30865501 ], [ -48.8223231, -26.30871396 ], [ -48.822944099999987, -26.30905101 ], [ -48.82316514, -26.30926296 ], [ -48.8232951, -26.309934 ] ] ] ] } }
]
}
