{
"type": "FeatureCollection",
"name": "boehmerwaldt",
"crs": { "type": "name", "properties": { "name": "urn:ogc:def:crs:EPSG::4674" } },
"features": [
{ "type": "Feature", "properties": { "bairro": "Boehmerwaldt" }, "geometry": { "type": "MultiPolygon", "coordinates": [ [ [ [ -48.8183973, -26.37063504000001 ], [ -48.8184153, -26.371416960000015 ], [ -48.825053339999975, -26.37100098 ], [ -48.82616219, -26.37089193 ], [ -48.826272439999983, -26.37070842 ], [ -48.832045829999984, -26.37053739 ], [ -48.832508469999972, -26.36966371 ], [ -48.83412534, -26.36791704 ], [ -48.835149179999981, -26.367156 ], [ -48.83604758, -26.36673429 ], [ -48.836564510000017, -26.36627062 ], [ -48.8373869, -26.36429063 ], [ -48.83938206, -26.36197902 ], [ -48.838520979999977, -26.35452049 ], [ -48.834295100000013, -26.354255659999978 ], [ -48.83282386, -26.354611410000011 ], [ -48.830232689999988, -26.354816020000012 ], [ -48.83021376, -26.35462526 ], [ -48.827717899999982, -26.354826270000022 ], [ -48.82709658, -26.354823020000012 ], [ -48.826976219999985, -26.354624590000011 ], [ -48.8259811, -26.354735240000011 ], [ -48.825173220000011, -26.355429 ], [ -48.823059300000011, -26.35595901 ], [ -48.82231734, -26.356526009999989 ], [ -48.82190622, -26.357607 ], [ -48.821682299999978, -26.35779501 ], [ -48.8210253, -26.35794 ], [ -48.82064226, -26.358561 ], [ -48.8197041, -26.35926804 ], [ -48.8180751, -26.359382969999988 ], [ -48.818686379999988, -26.366868 ], [ -48.8183973, -26.37063504000001 ] ] ] ] } }
]
}
