{
"type": "FeatureCollection",
"name": "bom_retiro",
"crs": { "type": "name", "properties": { "name": "urn:ogc:def:crs:EPSG::4674" } },
"features": [
{ "type": "Feature", "properties": { "bairro": "Bom Retiro" }, "geometry": { "type": "MultiPolygon", "coordinates": [ [ [ [ -48.84536520000001, -26.27031786 ], [ -48.84571122, -26.272305 ], [ -48.8484951, -26.27329599 ], [ -48.8486643, -26.273304990000014 ], [ -48.84890406000001, -26.272988010000017 ], [ -48.84944406, -26.27273799 ], [ -48.85008042, -26.27257761 ], [ -48.85136322000001, -26.25949503 ], [ -48.852651309999985, -26.25977897000001 ], [ -48.85257822, -26.25570099 ], [ -48.849095560000016, -26.25406735000001 ], [ -48.84876461, -26.25451741 ], [ -48.84254214, -26.252240039999986 ], [ -48.84314514, -26.25152103 ], [ -48.831017100000011, -26.24681601 ], [ -48.83162406, -26.260504020000017 ], [ -48.835509179999988, -26.268165 ], [ -48.83666406, -26.267324040000013 ], [ -48.83877834, -26.26701903 ], [ -48.83940726, -26.27046 ], [ -48.84105138000001, -26.27269803 ], [ -48.84480618, -26.27001603 ], [ -48.845297219999985, -26.26980498 ], [ -48.84536520000001, -26.27031786 ] ] ] ] } }
]
}
