{
"type": "FeatureCollection",
"name": "bucarein",
"crs": { "type": "name", "properties": { "name": "urn:ogc:def:crs:EPSG::4674" } },
"features": [
{ "type": "Feature", "properties": { "bairro": "Bucarein" }, "geometry": { "type": "MultiPolygon", "coordinates": [ [ [ [ -48.84209843, -26.323076629999989 ], [ -48.84478026, -26.322264 ], [ -48.84549566, -26.307230929999989 ], [ -48.84070847, -26.307379700000013 ], [ -48.840800039999984, -26.30566433000001 ], [ -48.84038934, -26.305911 ], [ -48.84002034, -26.30588796 ], [ -48.839425060000011, -26.30530425000002 ], [ -48.83564526, -26.30825901 ], [ -48.83541306, -26.30867904 ], [ -48.8350851, -26.310060990000032 ], [ -48.83268426, -26.311795020000012 ], [ -48.83149518, -26.31233799 ], [ -48.83123526, -26.31265902 ], [ -48.8306751, -26.31428802 ], [ -48.83089434, -26.314929990000017 ], [ -48.83063226, -26.31674601 ], [ -48.83093826, -26.31722499 ], [ -48.8321223, -26.31779604 ], [ -48.83416206, -26.319417029999983 ], [ -48.83550918000001, -26.320780980000016 ], [ -48.83638722, -26.321277959999986 ], [ -48.83787618, -26.321849010000019 ], [ -48.838456139999984, -26.32227804 ], [ -48.83979714, -26.32358196 ], [ -48.8398641, -26.32379697 ], [ -48.84209843, -26.323076629999989 ] ] ] ] } }
]
}
