{
"type": "FeatureCollection",
"name": "centro",
"crs": { "type": "name", "properties": { "name": "urn:ogc:def:crs:EPSG::4674" } },
"features": [
{ "type": "Feature", "properties": { "bairro": "Centro" }, "geometry": { "type": "MultiPolygon", "coordinates": [ [ [ [ -48.840983340000015, -26.30172303 ], [ -48.840821339999984, -26.30316501 ], [ -48.84042534, -26.30442402 ], [ -48.839865179999975, -26.30505303 ], [ -48.839425060000011, -26.30530425000002 ], [ -48.84002034, -26.30588796 ], [ -48.84038934, -26.305911 ], [ -48.840800039999984, -26.30566433000001 ], [ -48.84070847, -26.307379700000013 ], [ -48.84463952, -26.307233320000016 ], [ -48.84774738, -26.30731797 ], [ -48.848479259999976, -26.307651960000019 ], [ -48.8495373, -26.308442970000023 ], [ -48.85262403, -26.305520930000011 ], [ -48.850189719999989, -26.303425239999981 ], [ -48.850587749999988, -26.303065120000021 ], [ -48.850693149999984, -26.30275735 ], [ -48.85002644, -26.29459544 ], [ -48.843389219999978, -26.29502298000002 ], [ -48.842458259999987, -26.294976 ], [ -48.84208638, -26.29549602 ], [ -48.84188226, -26.29987803 ], [ -48.84170910000001, -26.300727 ], [ -48.841039139999985, -26.30141901 ], [ -48.840983340000015, -26.30172303 ] ] ] ] } }
]
}
