{
"type": "FeatureCollection",
"name": "comasa",
"crs": { "type": "name", "properties": { "name": "urn:ogc:def:crs:EPSG::4674" } },
"features": [
{ "type": "Feature", "properties": { "bairro": "Comasa" }, "geometry": { "type": "MultiPolygon", "coordinates": [ [ [ [ -48.79196322, -26.28491598 ], [ -48.793430709999981, -26.284926450000025 ], [ -48.79843928, -26.28278099000001 ], [ -48.798966719999981, -26.291754569999988 ], [ -48.79917785, -26.29347496 ], [ -48.80476014, -26.28831402 ], [ -48.80868234, -26.284291020000012 ], [ -48.809585219999988, -26.28441198 ], [ -48.80992614, -26.28428499 ], [ -48.81064722, -26.282599020000013 ], [ -48.81146205000001, -26.27130573 ], [ -48.81142079, -26.27095692 ], [ -48.81067362, -26.269730110000012 ], [ -48.80960826, -26.270400959999989 ], [ -48.809366339999983, -26.270359019999987 ], [ -48.8088033, -26.27060103 ], [ -48.808394339999985, -26.27097003 ], [ -48.808127219999989, -26.27159301 ], [ -48.8068881, -26.271825030000013 ], [ -48.8066343, -26.271837 ], [ -48.805028339999978, -26.27122698 ], [ -48.80391522, -26.271278010000014 ], [ -48.803366219999987, -26.27112501 ], [ -48.80153526, -26.27102304 ], [ -48.800408099999984, -26.271099 ], [ -48.799812299999985, -26.27132103 ], [ -48.79918152, -26.27187513 ], [ -48.79873479, -26.27192188 ], [ -48.7985073, -26.27177796 ], [ -48.79606873, -26.27149675 ], [ -48.79472534, -26.27439248 ], [ -48.79263466, -26.278304790000011 ], [ -48.791901039999985, -26.28058936 ], [ -48.791298360000013, -26.284909300000013 ], [ -48.79196322, -26.28491598 ] ] ] ] } }
]
}
