{
"type": "FeatureCollection",
"name": "costa_e_silva",
"crs": { "type": "name", "properties": { "name": "urn:ogc:def:crs:EPSG::4674" } },
"features": [
{ "type": "Feature", "properties": { "bairro": "Costa E Silva" }, "geometry": { "type": "MultiPolygon", "coordinates": [ [ [ [ -48.863808059999982, -26.283756960000012 ], [ -48.863813099999987, -26.28391896 ], [ -48.86417922, -26.284209029999989 ], [ -48.86516706, -26.284344030000018 ], [ -48.8658723, -26.28484299 ], [ -48.86686338, -26.285064030000033 ], [ -48.8680323, -26.285972040000011 ], [ -48.87268314, -26.28470997 ], [ -48.87789126, -26.28460197 ], [ -48.88500414, -26.28421596 ], [ -48.88669326, -26.283069 ], [ -48.88919354, -26.28243362 ], [ -48.89326434, -26.27524899 ], [ -48.895390140000018, -26.26864002 ], [ -48.896644379999984, -26.267015970000013 ], [ -48.89812434000001, -26.26587801 ], [ -48.896767139999987, -26.266069980000022 ], [ -48.89631606, -26.26598997 ], [ -48.89513706000001, -26.26641702 ], [ -48.894288179999982, -26.266222979999988 ], [ -48.89406534, -26.266042980000016 ], [ -48.893911259999975, -26.265099960000015 ], [ -48.893549099999987, -26.26502301 ], [ -48.89078934, -26.265069 ], [ -48.887288339999984, -26.26434198 ], [ -48.88364118, -26.26412301 ], [ -48.88280922, -26.264234970000015 ], [ -48.8781861, -26.26646796 ], [ -48.876947339999987, -26.266262040000012 ], [ -48.87506814000001, -26.26488702 ], [ -48.874234380000011, -26.26459704 ], [ -48.86927718, -26.26453899 ], [ -48.868351259999976, -26.264206979999987 ], [ -48.86746314, -26.263464030000016 ], [ -48.86694222, -26.263322010000017 ], [ -48.86559834, -26.263339020000014 ], [ -48.864577380000014, -26.26365303 ], [ -48.86362230000001, -26.263743029999976 ], [ -48.862284179999982, -26.263775970000015 ], [ -48.86193112, -26.263536760000015 ], [ -48.861627169999984, -26.26351706 ], [ -48.86153538, -26.26408998 ], [ -48.862136219999989, -26.268111 ], [ -48.862464229999979, -26.26905862 ], [ -48.863074379999986, -26.27351001 ], [ -48.863808059999982, -26.283756960000012 ] ] ] ] } }
]
}
