{
"type": "FeatureCollection",
"name": "dona_francisca",
"crs": { "type": "name", "properties": { "name": "urn:ogc:def:crs:EPSG::4674" } },
"features": [
{ "type": "Feature", "properties": { "bairro": "Dona Francisca" }, "geometry": { "type": "MultiPolygon", "coordinates": [ [ [ [ -48.91995864, -26.18696433 ], [ -48.91898785, -26.18775861 ], [ -48.91863484, -26.18846464 ], [ -48.91863484, -26.18943543 ], [ -48.918929009999985, -26.190112049999989 ], [ -48.92060583, -26.1921713 ], [ -48.920841179999989, -26.192936160000013 ], [ -48.920429329999983, -26.19437764000001 ], [ -48.920046889999981, -26.194760070000012 ], [ -48.91839949, -26.19508367 ], [ -48.91722278, -26.1954661 ], [ -48.913839719999984, -26.19531901 ], [ -48.91475525, -26.203992619999987 ], [ -48.915065219999988, -26.20406997000001 ], [ -48.915555179999977, -26.20463904 ], [ -48.916551299999988, -26.204839020000019 ], [ -48.91821738, -26.20560996 ], [ -48.91916022, -26.20568403 ], [ -48.930064259999988, -26.198289 ], [ -48.92478398, -26.192254370000015 ], [ -48.92440488, -26.19148279 ], [ -48.91995864, -26.18696433 ] ] ] ] } }
]
}
