{
"type": "FeatureCollection",
"name": "espinheiros",
"crs": { "type": "name", "properties": { "name": "urn:ogc:def:crs:EPSG::4674" } },
"features": [
{ "type": "Feature", "properties": { "bairro": "Espinheiros" }, "geometry": { "type": "MultiPolygon", "coordinates": [ [ [ [ -48.90339755, -26.33325968 ], [ -48.90549407, -26.33123981 ], [ -48.903490369999986, -26.329409580000018 ], [ -48.90289038, -26.32903803 ], [ -48.90118879, -26.32735276 ], [ -48.898991219999985, -26.327852010000012 ], [ -48.897624149999977, -26.32839371 ], [ -48.896517299999978, -26.32954302 ], [ -48.901062300000014, -26.333991 ], [ -48.903896319999987, -26.33381596 ], [ -48.90339755, -26.33325968 ] ] ], [ [ [ -48.8025321, -26.218863990000017 ], [ -48.801379379999986, -26.21761704 ], [ -48.801720299999978, -26.215999020000037 ], [ -48.8010993, -26.21427696 ], [ -48.79649238, -26.217833040000013 ], [ -48.798053339999989, -26.21991996 ], [ -48.80156513999998, -26.21905398 ], [ -48.8020983, -26.219168010000015 ], [ -48.8025321, -26.218863990000017 ] ] ], [ [ [ -48.774229039999987, -26.28968899 ], [ -48.77411822, -26.290724539999989 ], [ -48.774772409999976, -26.290908240000011 ], [ -48.77492838, -26.29156401 ], [ -48.776365139999989, -26.29204803 ], [ -48.776900100000013, -26.292429990000016 ], [ -48.77808414, -26.29286199 ], [ -48.77898522, -26.293014990000021 ], [ -48.779633219999987, -26.29291302 ], [ -48.78053538, -26.29248102 ], [ -48.78126834, -26.29171701 ], [ -48.78135222, -26.291360970000017 ], [ -48.781747139999986, -26.29136097 ], [ -48.7824513, -26.291106 ], [ -48.785128259999986, -26.28924903 ], [ -48.78538134, -26.28871398 ], [ -48.786255059999988, -26.28818001 ], [ -48.78645234, -26.288358030000012 ], [ -48.786846179999976, -26.28840897 ], [ -48.78777606, -26.28802701 ], [ -48.78794526, -26.287722 ], [ -48.788086379999982, -26.28769698000001 ], [ -48.7883121, -26.287926030000012 ], [ -48.788988179999976, -26.28792603 ], [ -48.789270059999986, -26.287517970000017 ], [ -48.789100139999981, -26.286908039999989 ], [ -48.78867822, -26.28652599 ], [ -48.78865013999998, -26.28617004 ], [ -48.78867822, -26.28586404 ], [ -48.788988179999969, -26.285508 ], [ -48.788790180000014, -26.284853970000011 ], [ -48.788931299999987, -26.283112020000011 ], [ -48.789199139999987, -26.28206901 ], [ -48.7900023, -26.28150903 ], [ -48.788631100000011, -26.27940888 ], [ -48.78794526, -26.27861796 ], [ -48.7867623, -26.27926596 ], [ -48.78545226, -26.277726959999988 ], [ -48.784987139999984, -26.27799399 ], [ -48.78242322, -26.27433 ], [ -48.77932434, -26.274710970000015 ], [ -48.77523236, -26.27454236 ], [ -48.77326806, -26.274239009999985 ], [ -48.77232138, -26.289722280000014 ], [ -48.774229039999987, -26.28968899 ] ] ] ] } }
]
}
