{
"type": "FeatureCollection",
"name": "floresta",
"crs": { "type": "name", "properties": { "name": "urn:ogc:def:crs:EPSG::4674" } },
"features": [
{ "type": "Feature", "properties": { "bairro": "Floresta" }, "geometry": { "type": "MultiPolygon", "coordinates": [ [ [ [ -48.85064939, -26.34823191000001 ], [ -48.85715008, -26.34844726 ], [ -48.85708218, -26.34618402 ], [ -48.85897901, -26.33918192 ], [ -48.85931022, -26.336483010000013 ], [ -48.86219526, -26.32995504 ], [ -48.86268126, -26.329194990000016 ], [ -48.864490260000011, -26.32717197 ], [ -48.86312341, -26.32632462 ], [ -48.86240288, -26.326223160000019 ], [ -48.86128067, -26.32640746 ], [ -48.86028633, -26.32636827 ], [ -48.85556074, -26.3248386 ], [ -48.85228262, -26.322018320000019 ], [ -48.85164775, -26.32162763 ], [ -48.851122769999975, -26.321468910000025 ], [ -48.84812754, -26.321385379999985 ], [ -48.8470927, -26.3215587 ], [ -48.84209843, -26.323076629999989 ], [ -48.8412141, -26.339237010000012 ], [ -48.842882649999979, -26.34128067 ], [ -48.84291114, -26.34262101 ], [ -48.84278964, -26.34403907 ], [ -48.84213318, -26.34494191000001 ], [ -48.84195853, -26.34714833000001 ], [ -48.841329299999977, -26.347947030000011 ], [ -48.85064939, -26.34823191000001 ] ] ] ] } }
]
}
