{
"type": "FeatureCollection",
"name": "fátima",
"crs": { "type": "name", "properties": { "name": "urn:ogc:def:crs:EPSG::4674" } },
"features": [
{ "type": "Feature", "properties": { "bairro": "Fátima" }, "geometry": { "type": "MultiPolygon", "coordinates": [ [ [ [ -48.81344508, -26.333019050000011 ], [ -48.813674279999979, -26.33377963 ], [ -48.8224761, -26.33189697 ], [ -48.821628299999986, -26.330357970000012 ], [ -48.820655220000013, -26.32955499 ], [ -48.819870059999985, -26.32846401 ], [ -48.819121259999989, -26.32670496 ], [ -48.81867018, -26.32469004 ], [ -48.8191101, -26.32380003 ], [ -48.8191101, -26.32306302 ], [ -48.8197833, -26.32134996 ], [ -48.81992622, -26.32116501 ], [ -48.820764300000015, -26.320759019999983 ], [ -48.82114021, -26.320330300000013 ], [ -48.82134141, -26.320296770000031 ], [ -48.82124081, -26.3200285 ], [ -48.821614259999983, -26.31980601 ], [ -48.821741340000017, -26.319195 ], [ -48.82134606, -26.318394 ], [ -48.82127622, -26.31780801 ], [ -48.821431379999986, -26.31718503 ], [ -48.82110738, -26.31666303 ], [ -48.82084346, -26.315770380000018 ], [ -48.819345179999985, -26.31437298 ], [ -48.81700806, -26.313575040000025 ], [ -48.81652926, -26.313180030000012 ], [ -48.815963339999989, -26.311428990000028 ], [ -48.8148081, -26.310970980000011 ], [ -48.810586269999988, -26.310713440000018 ], [ -48.809295060000011, -26.31501099 ], [ -48.80885514, -26.32099599 ], [ -48.80897628, -26.32218833 ], [ -48.80811822, -26.32432797 ], [ -48.80817006, -26.325045989999989 ], [ -48.80955714000001, -26.327349 ], [ -48.809964299999983, -26.328920040000014 ], [ -48.810971219999985, -26.32970601 ], [ -48.81099318, -26.33067801 ], [ -48.81189138, -26.33089104 ], [ -48.81236262, -26.3311344 ], [ -48.813218419999984, -26.33234439 ], [ -48.81344508, -26.333019050000011 ] ] ] ] } }
]
}
