{
"type": "FeatureCollection",
"name": "glória",
"crs": { "type": "name", "properties": { "name": "urn:ogc:def:crs:EPSG::4674" } },
"features": [
{ "type": "Feature", "properties": { "bairro": "Glória" }, "geometry": { "type": "MultiPolygon", "coordinates": [ [ [ [ -48.85917752000001, -26.30316352 ], [ -48.859054259999986, -26.30696796 ], [ -48.85945818, -26.30698497 ], [ -48.8601843, -26.30761596 ], [ -48.86062926000001, -26.307675990000018 ], [ -48.860841299999983, -26.30758401 ], [ -48.86133277, -26.3067261 ], [ -48.86510622, -26.306605980000022 ], [ -48.8736681, -26.30514897 ], [ -48.874944299999989, -26.305451009999988 ], [ -48.876915299999986, -26.30674404 ], [ -48.877519379999988, -26.308683 ], [ -48.877288259999972, -26.309944980000012 ], [ -48.878017259999972, -26.309111040000019 ], [ -48.882432299999984, -26.30237499 ], [ -48.883007219999989, -26.300530979999987 ], [ -48.884203139999968, -26.29299204 ], [ -48.88485114, -26.29032003 ], [ -48.88552506, -26.288799030000014 ], [ -48.88919354, -26.28243362 ], [ -48.88669326, -26.283069 ], [ -48.88500414, -26.28421596 ], [ -48.87789126, -26.28460197 ], [ -48.87268314, -26.28470997 ], [ -48.8680323, -26.285972040000011 ], [ -48.86686338, -26.285064030000033 ], [ -48.8662071, -26.28497898 ], [ -48.865362179999984, -26.28442899000002 ], [ -48.864347339999981, -26.28427698 ], [ -48.863813099999987, -26.28391896 ], [ -48.86444296, -26.29361313 ], [ -48.86163222, -26.29380303 ], [ -48.8620131, -26.29677897 ], [ -48.86019114, -26.29768599 ], [ -48.85917752000001, -26.30316352 ] ] ] ] } }
]
}
