{
"type": "FeatureCollection",
"name": "guanabara",
"crs": { "type": "name", "properties": { "name": "urn:ogc:def:crs:EPSG::4674" } },
"features": [
{ "type": "Feature", "properties": { "bairro": "Guanabara" }, "geometry": { "type": "MultiPolygon", "coordinates": [ [ [ [ -48.82024914, -26.32900104 ], [ -48.820655220000013, -26.32955499 ], [ -48.821628299999986, -26.330357970000012 ], [ -48.8224761, -26.33189697 ], [ -48.82635906, -26.33084298 ], [ -48.82677414, -26.33083002 ], [ -48.828041339999984, -26.33118804 ], [ -48.82985934, -26.33089401 ], [ -48.83173926, -26.329327020000012 ], [ -48.834756059999989, -26.32730202 ], [ -48.838456139999984, -26.32227804 ], [ -48.83787618, -26.321849010000019 ], [ -48.83638722, -26.321277959999986 ], [ -48.83550918000001, -26.320780980000016 ], [ -48.83416206, -26.319417029999983 ], [ -48.8321223, -26.31779604 ], [ -48.83093826, -26.31722499 ], [ -48.83063226, -26.31674601 ], [ -48.83089434, -26.314929990000017 ], [ -48.8306751, -26.31428802 ], [ -48.830115299999989, -26.31437199 ], [ -48.82902413999998, -26.31424698 ], [ -48.82809995, -26.31385679 ], [ -48.82404138, -26.311505040000014 ], [ -48.82365438, -26.31105603 ], [ -48.82335017999997, -26.310408030000012 ], [ -48.82316514, -26.30926296 ], [ -48.8223231, -26.30871396 ], [ -48.82176834, -26.30865501 ], [ -48.8205573, -26.308756979999988 ], [ -48.819824339999982, -26.309010960000016 ], [ -48.818978340000015, -26.30954601 ], [ -48.81804918, -26.31066498 ], [ -48.81703434, -26.31127599000002 ], [ -48.815963339999989, -26.311428990000028 ], [ -48.81652926, -26.313180030000012 ], [ -48.81700806, -26.313575040000025 ], [ -48.819345179999985, -26.31437298 ], [ -48.82084346, -26.315770380000018 ], [ -48.82110738, -26.31666303 ], [ -48.821431379999986, -26.31718503 ], [ -48.82127622, -26.31780801 ], [ -48.82134606, -26.318394 ], [ -48.821741340000017, -26.319195 ], [ -48.82171326, -26.31953898 ], [ -48.821614259999983, -26.31980601 ], [ -48.82124081, -26.3200285 ], [ -48.82134141, -26.320296770000031 ], [ -48.82114021, -26.320330300000013 ], [ -48.820764300000015, -26.320759019999983 ], [ -48.81992622, -26.32116501 ], [ -48.8197833, -26.32134996 ], [ -48.8191101, -26.32306302 ], [ -48.8191101, -26.32380003 ], [ -48.81867018, -26.32469004 ], [ -48.81922926, -26.32701402 ], [ -48.819870059999985, -26.32846401 ], [ -48.82024914, -26.32900104 ] ] ] ] } }
]
}
