{
"type": "FeatureCollection",
"name": "iririu",
"crs": { "type": "name", "properties": { "name": "urn:ogc:def:crs:EPSG::4674" } },
"features": [
{ "type": "Feature", "properties": { "bairro": "Iririu" }, "geometry": { "type": "MultiPolygon", "coordinates": [ [ [ [ -48.811082159999977, -26.27634715 ], [ -48.81063534, -26.28206199 ], [ -48.8107401, -26.282750040000014 ], [ -48.81112818, -26.28269397 ], [ -48.812354699999979, -26.2812675 ], [ -48.81507018, -26.283513960000011 ], [ -48.815280059999971, -26.28355797 ], [ -48.82687026, -26.292252960000013 ], [ -48.83119206, -26.28196101 ], [ -48.83684226, -26.28017901 ], [ -48.83636706, -26.27934804 ], [ -48.835271219999989, -26.27806401 ], [ -48.834404339999978, -26.27650296 ], [ -48.83292906, -26.27474796 ], [ -48.832017180000022, -26.274006 ], [ -48.83072405999998, -26.273450969999985 ], [ -48.835509179999988, -26.268165 ], [ -48.83162406, -26.260504020000017 ], [ -48.822640259999986, -26.26125903 ], [ -48.81951006, -26.258769990000012 ], [ -48.81874209, -26.260567580000018 ], [ -48.81835014, -26.26038198 ], [ -48.8101101, -26.26901703 ], [ -48.81142079, -26.27095692 ], [ -48.811082159999977, -26.27634715 ] ] ] ] } }
]
}
