{
"type": "FeatureCollection",
"name": "itaum",
"crs": { "type": "name", "properties": { "name": "urn:ogc:def:crs:EPSG::4674" } },
"features": [
{ "type": "Feature", "properties": { "bairro": "Itaum" }, "geometry": { "type": "MultiPolygon", "coordinates": [ [ [ [ -48.816851049999983, -26.33815937 ], [ -48.81629497, -26.340328390000028 ], [ -48.81833718, -26.340685020000013 ], [ -48.8201091, -26.34070797 ], [ -48.82140911, -26.340885090000011 ], [ -48.82340634, -26.340084 ], [ -48.82553514, -26.33836683 ], [ -48.82627327, -26.339154170000032 ], [ -48.82648134, -26.339022069999988 ], [ -48.83005417, -26.34279462000001 ], [ -48.83129532, -26.342114359999982 ], [ -48.83176915, -26.34258112 ], [ -48.832200199999981, -26.343356599999986 ], [ -48.83250256, -26.343235630000024 ], [ -48.83474037, -26.341064020000015 ], [ -48.83604596, -26.34040813 ], [ -48.837340139999988, -26.34051699 ], [ -48.83834022, -26.33987799 ], [ -48.83948097, -26.338861969999989 ], [ -48.84040084999998, -26.33928464 ], [ -48.84080334, -26.33935599 ], [ -48.8412141, -26.339237010000012 ], [ -48.84209843, -26.323076629999989 ], [ -48.8398641, -26.32379697 ], [ -48.83979714, -26.32358196 ], [ -48.838456139999984, -26.32227804 ], [ -48.834756059999989, -26.32730202 ], [ -48.83173926, -26.329327020000012 ], [ -48.82985934, -26.33089401 ], [ -48.828041339999984, -26.33118804 ], [ -48.82677414, -26.33083002 ], [ -48.82635906, -26.33084298 ], [ -48.8229423, -26.33180499 ], [ -48.81679842, -26.33315753 ], [ -48.816643089999985, -26.33479153 ], [ -48.81691852, -26.336962719999985 ], [ -48.816851049999983, -26.33815937 ] ] ] ] } }
]
}
