{
"type": "FeatureCollection",
"name": "itinga",
"crs": { "type": "name", "properties": { "name": "urn:ogc:def:crs:EPSG::4674" } },
"features": [
{ "type": "Feature", "properties": { "bairro": "Itinga" }, "geometry": { "type": "MultiPolygon", "coordinates": [ [ [ [ -48.82616219, -26.37089193 ], [ -48.8184153, -26.371416960000015 ], [ -48.814104299999983, -26.371835010000012 ], [ -48.807181139999983, -26.371996020000012 ], [ -48.804887, -26.372244 ], [ -48.80666505, -26.37531191 ], [ -48.806884, -26.376201 ], [ -48.806814, -26.376609 ], [ -48.806346, -26.377134 ], [ -48.805676, -26.377537 ], [ -48.804535099999988, -26.3787563 ], [ -48.804082, -26.37994 ], [ -48.80408669, -26.38036403000001 ], [ -48.804801959999985, -26.38072932 ], [ -48.807195, -26.381353 ], [ -48.807787739999988, -26.381722390000022 ], [ -48.807986789999987, -26.38213799 ], [ -48.80801304, -26.382700150000019 ], [ -48.80745307, -26.38427288 ], [ -48.807501189999989, -26.384887530000011 ], [ -48.808568, -26.386323 ], [ -48.808699, -26.386785 ], [ -48.808587, -26.388059 ], [ -48.808311, -26.388136 ], [ -48.8081071, -26.388459520000012 ], [ -48.80790804, -26.38924042 ], [ -48.80790367, -26.390471910000013 ], [ -48.808178979999987, -26.39162963 ], [ -48.808507, -26.392161 ], [ -48.809591, -26.392769 ], [ -48.811227019999983, -26.394748 ], [ -48.81263406, -26.394669990000011 ], [ -48.81291314, -26.3950531 ], [ -48.813930309999975, -26.39551923 ], [ -48.81587118, -26.39389401 ], [ -48.817194179999987, -26.39226402 ], [ -48.81761033999998, -26.391466980000011 ], [ -48.81804719, -26.389990990000015 ], [ -48.819187149999983, -26.39009598 ], [ -48.820525719999978, -26.39079635 ], [ -48.82181838, -26.39166399 ], [ -48.82303387000001, -26.392132500000013 ], [ -48.823942, -26.39234591 ], [ -48.82590504, -26.39245773 ], [ -48.82773156, -26.39214893 ], [ -48.830215089999989, -26.39102871 ], [ -48.83065201, -26.39097286 ], [ -48.83117622, -26.39113596 ], [ -48.831650669999988, -26.39106485 ], [ -48.83226827, -26.3906575 ], [ -48.83244567, -26.39031256 ], [ -48.833546169999984, -26.39022058 ], [ -48.834226189999988, -26.390581940000022 ], [ -48.83596492, -26.39052834 ], [ -48.83955414, -26.391097980000023 ], [ -48.8400333, -26.38892403 ], [ -48.84055314, -26.387894969999987 ], [ -48.84099018, -26.38747998 ], [ -48.84173034, -26.387051040000014 ], [ -48.8453012, -26.38603458 ], [ -48.845168379999983, -26.38298432 ], [ -48.8448275, -26.38180184 ], [ -48.842528409999986, -26.376811890000013 ], [ -48.84201233, -26.37637521000001 ], [ -48.8405832, -26.375779740000013 ], [ -48.83586414, -26.374282020000013 ], [ -48.83374626, -26.37395496 ], [ -48.83242122999998, -26.373191919999986 ], [ -48.83191707000001, -26.37106244 ], [ -48.832045829999984, -26.37053739 ], [ -48.826272439999983, -26.37070842 ], [ -48.82616219, -26.37089193 ] ] ] ] } }
]
}
