{
"type": "FeatureCollection",
"name": "jardim_sofia",
"crs": { "type": "name", "properties": { "name": "urn:ogc:def:crs:EPSG::4674" } },
"features": [
{ "type": "Feature", "properties": { "bairro": "Jardim Sofia" }, "geometry": { "type": "MultiPolygon", "coordinates": [ [ [ [ -48.845079910000017, -26.24624263 ], [ -48.85064682, -26.248319240000022 ], [ -48.85160028, -26.24843419 ], [ -48.85344238, -26.24576384 ], [ -48.8538565, -26.24462145 ], [ -48.853613739999972, -26.2430935 ], [ -48.85272839, -26.24265083 ], [ -48.852085789999983, -26.24157983000002 ], [ -48.851471759999988, -26.239180810000015 ], [ -48.84473164, -26.23815266 ], [ -48.83721414, -26.23672197 ], [ -48.83566391, -26.23632483 ], [ -48.83502131, -26.23498252 ], [ -48.832647189999982, -26.231446820000013 ], [ -48.83200876999998, -26.231439130000016 ], [ -48.831807489999989, -26.23122107 ], [ -48.83183265, -26.230281760000018 ], [ -48.83163976, -26.22954373 ], [ -48.83119526, -26.228973430000011 ], [ -48.83010498, -26.22817669 ], [ -48.82925239999998, -26.22796192 ], [ -48.828886609999984, -26.228047389999983 ], [ -48.828528279999986, -26.2284199 ], [ -48.82793282, -26.22969469 ], [ -48.82769799, -26.229828879999985 ], [ -48.8269736, -26.229833039999988 ], [ -48.82639805, -26.22913278 ], [ -48.826022879999989, -26.22975675 ], [ -48.82615608, -26.23017854 ], [ -48.827753629999982, -26.23293201000001 ], [ -48.828769879999989, -26.23694621 ], [ -48.829554209999984, -26.23808727 ], [ -48.83294668, -26.23971971 ], [ -48.84045156, -26.2444628 ], [ -48.845079910000017, -26.24624263 ] ] ] ] } }
]
}
