{
"type": "FeatureCollection",
"name": "jardim_paraíso",
"crs": { "type": "name", "properties": { "name": "urn:ogc:def:crs:EPSG::4674" } },
"features": [
{ "type": "Feature", "properties": { "bairro": "Jardim Paraíso" }, "geometry": { "type": "MultiPolygon", "coordinates": [ [ [ [ -48.818603449999983, -26.218763740000011 ], [ -48.82066795, -26.22116274 ], [ -48.81961151, -26.223342729999988 ], [ -48.820892299999976, -26.22478014 ], [ -48.823012509999984, -26.22389195 ], [ -48.82428875, -26.220571739999983 ], [ -48.82290081, -26.22019167 ], [ -48.822554589999989, -26.21993551 ], [ -48.822669059999988, -26.21794896 ], [ -48.82238538, -26.21728701 ], [ -48.822353099999987, -26.21632709 ], [ -48.82169704, -26.215278170000019 ], [ -48.82188832, -26.214656670000011 ], [ -48.82264314, -26.21416896 ], [ -48.82327422, -26.21405601 ], [ -48.82401438, -26.21419101 ], [ -48.82487622, -26.214825959999985 ], [ -48.82580034, -26.21479599 ], [ -48.826135139999977, -26.21518902 ], [ -48.833472299999983, -26.212808970000026 ], [ -48.83769438, -26.21321001 ], [ -48.83891406, -26.206883009999988 ], [ -48.827700059999984, -26.20304901 ], [ -48.8205697, -26.21027698000001 ], [ -48.816280219999989, -26.20694181 ], [ -48.80698364, -26.21621944 ], [ -48.80745289, -26.21698945 ], [ -48.808019049999977, -26.217544509999986 ], [ -48.81062022, -26.21956203 ], [ -48.811842059999975, -26.21968299 ], [ -48.81279138, -26.21960298 ], [ -48.816135060000015, -26.218953 ], [ -48.81697865, -26.21838996 ], [ -48.81771095, -26.2182374 ], [ -48.818603449999983, -26.218763740000011 ] ] ] ] } }
]
}
