{
"type": "FeatureCollection",
"name": "jardim-iririú",
"crs": { "type": "name", "properties": { "name": "urn:ogc:def:crs:EPSG::4674" } },
"features": [
{ "type": "Feature", "properties": { "bairro": "Jardim-Iririú" }, "geometry": { "type": "MultiPolygon", "coordinates": [ [ [ [ -48.7969431, -26.27163297 ], [ -48.7985073, -26.27177796 ], [ -48.79873479, -26.27192188 ], [ -48.79918152, -26.27187513 ], [ -48.799812299999985, -26.27132103 ], [ -48.800408099999984, -26.271099 ], [ -48.80153526, -26.27102304 ], [ -48.803366219999987, -26.27112501 ], [ -48.80391522, -26.271278010000014 ], [ -48.805028339999978, -26.27122698 ], [ -48.8066343, -26.271837 ], [ -48.808127219999989, -26.27159301 ], [ -48.808394339999985, -26.27097003 ], [ -48.8088033, -26.27060103 ], [ -48.809366339999983, -26.270359019999987 ], [ -48.80960826, -26.270400959999989 ], [ -48.81067362, -26.269730110000012 ], [ -48.8101101, -26.26901703 ], [ -48.81835014, -26.26038198 ], [ -48.81874209, -26.260567580000018 ], [ -48.819150649999983, -26.25956603 ], [ -48.81515839999998, -26.25628662 ], [ -48.81424326, -26.25733296 ], [ -48.812880299999982, -26.255454029999989 ], [ -48.8114027, -26.25423173 ], [ -48.80945204, -26.255960410000018 ], [ -48.80912330000001, -26.25599656 ], [ -48.80905617, -26.25563855 ], [ -48.80779308000001, -26.25562796 ], [ -48.80693611, -26.255863020000017 ], [ -48.804546919999979, -26.25526377 ], [ -48.8036488, -26.25526827 ], [ -48.803217659999987, -26.25557994 ], [ -48.80298547000001, -26.25558079000001 ], [ -48.80221296, -26.255014880000012 ], [ -48.80182033, -26.255304630000015 ], [ -48.80114958, -26.25537548 ], [ -48.800646369999988, -26.25471246 ], [ -48.80041262, -26.25479038 ], [ -48.8000542, -26.25609939 ], [ -48.79981525, -26.256047450000011 ], [ -48.799358130000023, -26.255195550000014 ], [ -48.799119189999978, -26.25512802 ], [ -48.7990153, -26.2552371 ], [ -48.79899971, -26.25654612000001 ], [ -48.798745180000012, -26.256696759999986 ], [ -48.797934840000011, -26.255881220000013 ], [ -48.79764395, -26.25578253 ], [ -48.79650687, -26.256312690000016 ], [ -48.795673729999983, -26.25653738 ], [ -48.795991119999982, -26.257183260000019 ], [ -48.796590239999979, -26.257910120000012 ], [ -48.79655637, -26.26007751 ], [ -48.79625158, -26.26070967 ], [ -48.79571904, -26.261069269999989 ], [ -48.79551419, -26.26154844 ], [ -48.79459996, -26.26610402 ], [ -48.79581965, -26.26998485 ], [ -48.79606873, -26.27149675 ], [ -48.7969431, -26.27163297 ] ] ] ] } }
]
}
