{
"type": "FeatureCollection",
"name": "jarivatuba",
"crs": { "type": "name", "properties": { "name": "urn:ogc:def:crs:EPSG::4674" } },
"features": [
{ "type": "Feature", "properties": { "bairro": "Jarivatuba" }, "geometry": { "type": "MultiPolygon", "coordinates": [ [ [ [ -48.795865259999971, -26.339313959999988 ], [ -48.7971483, -26.33924997 ], [ -48.79932126, -26.33947902 ], [ -48.802470180000014, -26.338698 ], [ -48.80376006, -26.33818302 ], [ -48.804468179999986, -26.33814198 ], [ -48.8054031, -26.33845797 ], [ -48.80708934, -26.33945202 ], [ -48.811983179999977, -26.33955399 ], [ -48.815238299999983, -26.340471 ], [ -48.81629497, -26.340328390000028 ], [ -48.81694489, -26.33743349 ], [ -48.81665286, -26.33546936 ], [ -48.81679842, -26.33315753 ], [ -48.813674279999979, -26.33377963 ], [ -48.813218419999984, -26.33234439 ], [ -48.81236262, -26.3311344 ], [ -48.81189138, -26.33089104 ], [ -48.81099318, -26.33067801 ], [ -48.810971219999985, -26.32970601 ], [ -48.809964299999983, -26.328920040000014 ], [ -48.80955714000001, -26.327349 ], [ -48.80817006, -26.325045989999989 ], [ -48.80813118, -26.32468896000001 ], [ -48.807925259999976, -26.32493601 ], [ -48.80803614, -26.32512204 ], [ -48.80770926, -26.32558203000001 ], [ -48.80542722, -26.328161970000018 ], [ -48.798326219999979, -26.33307003 ], [ -48.796549259999985, -26.33445297 ], [ -48.79288626000001, -26.33854698 ], [ -48.7946661, -26.339516010000025 ], [ -48.79504734, -26.33957199 ], [ -48.795865259999971, -26.339313959999988 ] ] ] ] } }
]
}
