{
"type": "FeatureCollection",
"name": "joão_costa",
"crs": { "type": "name", "properties": { "name": "urn:ogc:def:crs:EPSG::4674" } },
"features": [
{ "type": "Feature", "properties": { "bairro": "João Costa" }, "geometry": { "type": "MultiPolygon", "coordinates": [ [ [ [ -48.79765806, -26.340993 ], [ -48.79675626, -26.341801019999988 ], [ -48.795331379999986, -26.34204798 ], [ -48.7949991, -26.342213040000019 ], [ -48.79415975, -26.34305516 ], [ -48.803353259999987, -26.35026102 ], [ -48.80509314, -26.35066197 ], [ -48.80643522, -26.350817040000013 ], [ -48.808815180000011, -26.35001604 ], [ -48.81055151, -26.34996553 ], [ -48.81106426, -26.34970665 ], [ -48.811687699999986, -26.350998419999989 ], [ -48.811741629999986, -26.35146909 ], [ -48.81241358, -26.352631379999984 ], [ -48.81306781, -26.35466445 ], [ -48.81380334, -26.35385039 ], [ -48.8160261, -26.355532929999974 ], [ -48.81990138, -26.35517997 ], [ -48.82014056, -26.35227216 ], [ -48.821280259999988, -26.352625549999971 ], [ -48.821805970000014, -26.35319226 ], [ -48.822074339999979, -26.353212030000016 ], [ -48.8225484, -26.35270609 ], [ -48.822787089999984, -26.35216281000001 ], [ -48.82298622, -26.350866990000029 ], [ -48.82405218, -26.350714979999989 ], [ -48.824804529999987, -26.35023516 ], [ -48.824700280000016, -26.349556599999989 ], [ -48.82387484, -26.349318360000016 ], [ -48.8232833, -26.348220440000013 ], [ -48.823394829999977, -26.34667415 ], [ -48.8238756, -26.345942250000014 ], [ -48.823910829999981, -26.34504068 ], [ -48.82378604, -26.34482031 ], [ -48.822408039999985, -26.34432911 ], [ -48.822301840000016, -26.342967040000016 ], [ -48.821434209999978, -26.34198879 ], [ -48.82140911, -26.340885090000011 ], [ -48.8201091, -26.34070797 ], [ -48.81833718, -26.340685020000013 ], [ -48.81629497, -26.340328390000028 ], [ -48.815238299999983, -26.340471 ], [ -48.811983179999977, -26.33955399 ], [ -48.80741406, -26.339508 ], [ -48.806710259999981, -26.33927796 ], [ -48.805132899999961, -26.338342850000011 ], [ -48.80411322, -26.33813496 ], [ -48.802470180000014, -26.338698 ], [ -48.79932126, -26.33947902 ], [ -48.79838814, -26.34021 ], [ -48.79765806, -26.340993 ] ] ] ] } }
]
}
