{
"type": "FeatureCollection",
"name": "morro_do_meio",
"crs": { "type": "name", "properties": { "name": "urn:ogc:def:crs:EPSG::4674" } },
"features": [
{ "type": "Feature", "properties": { "bairro": "Morro Do Meio" }, "geometry": { "type": "MultiPolygon", "coordinates": [ [ [ [ -48.89444076, -26.336006900000015 ], [ -48.894410219999983, -26.336541960000019 ], [ -48.89426334, -26.336755980000014 ], [ -48.89379426, -26.33706603 ], [ -48.89339322, -26.33716098 ], [ -48.89339034, -26.338183019999988 ], [ -48.910229339999979, -26.33699196 ], [ -48.9160473, -26.331354 ], [ -48.921664409999984, -26.32564783 ], [ -48.92108693, -26.32460137 ], [ -48.92023997, -26.32405189 ], [ -48.919755980000012, -26.32346424 ], [ -48.91960836, -26.32270497 ], [ -48.91049826, -26.31532203 ], [ -48.9107103, -26.31776697 ], [ -48.9106491, -26.31847599 ], [ -48.9101163, -26.31882303 ], [ -48.90827418, -26.319123990000023 ], [ -48.907592339999979, -26.319753 ], [ -48.907312259999983, -26.322886980000014 ], [ -48.90717834, -26.32323996 ], [ -48.90659514, -26.323713989999984 ], [ -48.905134259999976, -26.32411899 ], [ -48.903974339999976, -26.325621990000013 ], [ -48.90320006, -26.32631575 ], [ -48.90218278, -26.327119069999988 ], [ -48.90118879, -26.32735276 ], [ -48.90289038, -26.32903803 ], [ -48.903490369999986, -26.329409580000018 ], [ -48.90549407, -26.33123981 ], [ -48.90339755, -26.33325968 ], [ -48.903896319999987, -26.33381596 ], [ -48.901062300000014, -26.333991 ], [ -48.896517299999978, -26.32954302 ], [ -48.89537934, -26.33066802 ], [ -48.89473926, -26.331594029999984 ], [ -48.894505259999988, -26.33218101 ], [ -48.89448006, -26.333577 ], [ -48.894325259999988, -26.33416497000001 ], [ -48.89444076, -26.336006900000015 ] ] ] ] } }
]
}
