{
"type": "FeatureCollection",
"name": "nova_brasília",
"crs": { "type": "name", "properties": { "name": "urn:ogc:def:crs:EPSG::4674" } },
"features": [
{ "type": "Feature", "properties": { "bairro": "Nova Brasília" }, "geometry": { "type": "MultiPolygon", "coordinates": [ [ [ [ -48.85327518, -26.376525 ], [ -48.851583179999977, -26.37842598000001 ], [ -48.8513661, -26.37935802 ], [ -48.851458260000015, -26.38080297 ], [ -48.8513661, -26.381816010000012 ], [ -48.85102914, -26.38245798 ], [ -48.84975438, -26.384112 ], [ -48.8490153, -26.384766029999987 ], [ -48.848556299999984, -26.384997959999989 ], [ -48.84173034, -26.387051040000014 ], [ -48.84099018, -26.38747998 ], [ -48.84055314, -26.387894969999987 ], [ -48.8400333, -26.38892403 ], [ -48.83955414, -26.391097980000023 ], [ -48.84111510000001, -26.39132901 ], [ -48.841552140000012, -26.38955502 ], [ -48.84225306, -26.38886004 ], [ -48.846260220000012, -26.38776096 ], [ -48.84929034, -26.386767 ], [ -48.850683179999976, -26.38582704 ], [ -48.85246338, -26.38350396 ], [ -48.85301706, -26.382366 ], [ -48.85319634, -26.381005020000018 ], [ -48.85305306, -26.37943902 ], [ -48.8546763, -26.37724896 ], [ -48.85661995, -26.37522163 ], [ -48.85702073, -26.374448690000015 ], [ -48.85807994, -26.371843620000032 ], [ -48.85870974, -26.369467550000014 ], [ -48.86008385, -26.36548837 ], [ -48.8684661, -26.36554578 ], [ -48.863227819999985, -26.35786297000001 ], [ -48.86483423, -26.35290406 ], [ -48.877520569999987, -26.35292894 ], [ -48.8773383, -26.35093998 ], [ -48.88287906, -26.35066701 ], [ -48.886194300000014, -26.34114897 ], [ -48.88730418, -26.32816296 ], [ -48.88853718, -26.327951010000021 ], [ -48.88964022, -26.327924009999986 ], [ -48.890045220000012, -26.327556 ], [ -48.890207889999985, -26.32661539 ], [ -48.88774734, -26.32661496 ], [ -48.88786240000001, -26.326161479999978 ], [ -48.88594318, -26.326142660000023 ], [ -48.864490260000011, -26.32717197 ], [ -48.86268126, -26.329194990000016 ], [ -48.86203434, -26.330274 ], [ -48.85931022, -26.336483010000013 ], [ -48.85897901, -26.33918192 ], [ -48.85742418, -26.34468498 ], [ -48.857031060000011, -26.346573 ], [ -48.85715008, -26.34844726 ], [ -48.85842960999998, -26.35324961 ], [ -48.85859634, -26.35446798 ], [ -48.85875698, -26.360009530000021 ], [ -48.85864493, -26.364300070000013 ], [ -48.85740114, -26.367788970000017 ], [ -48.85664334, -26.37103401000001 ], [ -48.855873299999985, -26.37347004 ], [ -48.85521738, -26.37455904 ], [ -48.85327518, -26.376525 ] ] ] ] } }
]
}
