{
"type": "FeatureCollection",
"name": "paranaguá-mirim",
"crs": { "type": "name", "properties": { "name": "urn:ogc:def:crs:EPSG::4674" } },
"features": [
{ "type": "Feature", "properties": { "bairro": "Paranaguá-Mirim" }, "geometry": { "type": "MultiPolygon", "coordinates": [ [ [ [ -48.768063, -26.354228 ], [ -48.768548, -26.353997 ], [ -48.768754, -26.35439 ], [ -48.769925129999983, -26.35431343 ], [ -48.77009225, -26.35455782 ], [ -48.769849, -26.354842 ], [ -48.77026, -26.355561 ], [ -48.771193, -26.356003 ], [ -48.771893, -26.355996 ], [ -48.773302, -26.355528 ], [ -48.774105, -26.355712 ], [ -48.775233469999989, -26.35624082 ], [ -48.775784790000017, -26.35599844 ], [ -48.77612595, -26.35599844 ], [ -48.77685641, -26.35632323 ], [ -48.77726616, -26.356261430000014 ], [ -48.777817399999989, -26.3569018 ], [ -48.778228, -26.357781 ], [ -48.779064, -26.358484 ], [ -48.77958, -26.35866 ], [ -48.780088, -26.359208 ], [ -48.780453149999985, -26.360421129999988 ], [ -48.780950639999979, -26.360766840000014 ], [ -48.783049750000011, -26.36151572 ], [ -48.78340717, -26.3621232 ], [ -48.78390136, -26.362618470000012 ], [ -48.784408, -26.362824 ], [ -48.78518338, -26.36276287999998 ], [ -48.78633317, -26.363636280000016 ], [ -48.78752718, -26.36431251 ], [ -48.789457409999976, -26.36480674 ], [ -48.790125, -26.365181 ], [ -48.79078741, -26.36575888 ], [ -48.79135394, -26.36595356 ], [ -48.79434847, -26.36609355 ], [ -48.79605634, -26.366676660000014 ], [ -48.79783806, -26.364996 ], [ -48.797891340000014, -26.36430696 ], [ -48.79774914, -26.36379396 ], [ -48.79734126000001, -26.363313 ], [ -48.79716306, -26.362783979999989 ], [ -48.79723434000001, -26.362463040000012 ], [ -48.797536379999976, -26.362094039999988 ], [ -48.7982643, -26.361612990000015 ], [ -48.79869126, -26.36110098 ], [ -48.798851099999986, -26.36007498 ], [ -48.79876218, -26.358584040000014 ], [ -48.79785606, -26.35622802 ], [ -48.797767139999976, -26.35550703 ], [ -48.79783806, -26.35454502 ], [ -48.7982463, -26.35308603 ], [ -48.7989573, -26.35223598 ], [ -48.80205618, -26.34996501 ], [ -48.803353259999987, -26.35026102 ], [ -48.79415975, -26.34305516 ], [ -48.7949991, -26.342213040000019 ], [ -48.795331379999986, -26.34204798 ], [ -48.79675626, -26.341801019999988 ], [ -48.79932126, -26.33947902 ], [ -48.7971483, -26.33924997 ], [ -48.795865259999971, -26.339313959999988 ], [ -48.79504734, -26.33957199 ], [ -48.7946661, -26.339516010000025 ], [ -48.790659299999987, -26.337468960000013 ], [ -48.78892338, -26.33542803 ], [ -48.78887730000001, -26.334207 ], [ -48.788574179999983, -26.33281704 ], [ -48.785871299999975, -26.329905 ], [ -48.78515022, -26.329455 ], [ -48.78266723, -26.32710215 ], [ -48.782359740000011, -26.32697254 ], [ -48.782203139999986, -26.32636236 ], [ -48.78122777, -26.32545175 ], [ -48.78104056, -26.32501621 ], [ -48.781068369999986, -26.3246157 ], [ -48.78146332, -26.324120630000014 ], [ -48.78158489, -26.32370801 ], [ -48.78096267999998, -26.322084719999989 ], [ -48.7816747, -26.32180103 ], [ -48.782463109999988, -26.32122848 ], [ -48.782660859999986, -26.32136623 ], [ -48.782660859999986, -26.32187685000001 ], [ -48.78298912, -26.32209569 ], [ -48.783211269999981, -26.32208121 ], [ -48.783704499999985, -26.321839859999987 ], [ -48.78401456, -26.321545920000013 ], [ -48.78405549, -26.32131708 ], [ -48.78316547, -26.31982074 ], [ -48.78268813, -26.31944905000001 ], [ -48.78193058, -26.319203290000015 ], [ -48.7818972, -26.31908092 ], [ -48.78288734, -26.31830215 ], [ -48.78297363, -26.317585930000021 ], [ -48.783627170000017, -26.317545640000013 ], [ -48.784589499999989, -26.31792389000001 ], [ -48.7855787, -26.317828360000014 ], [ -48.786219340000024, -26.31740657 ], [ -48.78625828, -26.31707838 ], [ -48.78539586, -26.3161238 ], [ -48.785194859999983, -26.31567799 ], [ -48.78549865, -26.31524329 ], [ -48.78323786, -26.31546666 ], [ -48.77811896, -26.31182793000001 ], [ -48.77565203, -26.31367813 ], [ -48.77003975, -26.31515829 ], [ -48.76794285, -26.31620674 ], [ -48.76851714, -26.316948960000012 ], [ -48.76851714, -26.318328030000014 ], [ -48.767665379999983, -26.31855204 ], [ -48.76702638, -26.319609990000011 ], [ -48.75517646, -26.320030490000011 ], [ -48.75543129, -26.34088417000001 ], [ -48.75546552, -26.35753981 ], [ -48.755808059999985, -26.35807139 ], [ -48.756159849999989, -26.358342770000011 ], [ -48.7562901, -26.3580522 ], [ -48.756837829999988, -26.35802883 ], [ -48.75832683, -26.35910526000001 ], [ -48.759150209999987, -26.35930312 ], [ -48.759494879999984, -26.35902866 ], [ -48.7596353, -26.35819252000001 ], [ -48.75930978, -26.357011720000017 ], [ -48.7587098, -26.355926650000015 ], [ -48.758831069999978, -26.35542241 ], [ -48.75908, -26.35537773 ], [ -48.75969912, -26.35556283 ], [ -48.76021613, -26.3558692 ], [ -48.76085587, -26.35717018 ], [ -48.76123098, -26.3572032 ], [ -48.761607569999988, -26.356896830000011 ], [ -48.761869260000012, -26.356424500000013 ], [ -48.761690539999982, -26.354509680000014 ], [ -48.76205436, -26.3546118 ], [ -48.7626688, -26.3551375 ], [ -48.76305007, -26.35517987 ], [ -48.76343303, -26.35469478000001 ], [ -48.7640011, -26.35439479 ], [ -48.764186199999983, -26.35415225 ], [ -48.763713869999982, -26.35323951 ], [ -48.764075269999985, -26.3529045 ], [ -48.76474149, -26.352792720000014 ], [ -48.76497766, -26.35184169 ], [ -48.765301, -26.351861 ], [ -48.765577629999981, -26.3521353 ], [ -48.76609464, -26.35201402 ], [ -48.766854179999989, -26.35262039 ], [ -48.768111579999982, -26.35267783 ], [ -48.76815626, -26.352811870000018 ], [ -48.76776692, -26.35315654 ], [ -48.766777, -26.353586 ], [ -48.766745629999974, -26.35380755000002 ], [ -48.76741403, -26.353645030000013 ], [ -48.76754451, -26.3537549 ], [ -48.76737112, -26.3540407 ], [ -48.7674621, -26.35447596 ], [ -48.767716, -26.354469 ], [ -48.768063, -26.354228 ] ] ] ] } }
]
}
