{
"type": "FeatureCollection",
"name": "parque_guaraní",
"crs": { "type": "name", "properties": { "name": "urn:ogc:def:crs:EPSG::4674" } },
"features": [
{ "type": "Feature", "properties": { "bairro": "Parque Guaraní" }, "geometry": { "type": "MultiPolygon", "coordinates": [ [ [ [ -48.81032322, -26.371951020000012 ], [ -48.814104299999983, -26.371835010000012 ], [ -48.8184153, -26.371416960000015 ], [ -48.818686379999988, -26.366868 ], [ -48.818006339999982, -26.35836201 ], [ -48.8182551, -26.35799904 ], [ -48.819680339999984, -26.35698096 ], [ -48.81964326, -26.35607097 ], [ -48.81990138, -26.35517997 ], [ -48.8160261, -26.355532929999974 ], [ -48.81380334, -26.35385039 ], [ -48.81306781, -26.35466445 ], [ -48.81241358, -26.352631379999984 ], [ -48.811741629999986, -26.35146909 ], [ -48.811687699999986, -26.350998419999989 ], [ -48.81106426, -26.34970665 ], [ -48.81055151, -26.34996553 ], [ -48.808815180000011, -26.35001604 ], [ -48.80643522, -26.350817040000013 ], [ -48.80509314, -26.35066197 ], [ -48.80205618, -26.34996501 ], [ -48.798708179999984, -26.35244496 ], [ -48.7982463, -26.35308603 ], [ -48.79801518, -26.35367904000001 ], [ -48.797767139999976, -26.35550703 ], [ -48.79785606, -26.35622802 ], [ -48.79876218, -26.358584040000014 ], [ -48.798851099999986, -26.36007498 ], [ -48.79869126, -26.36110098 ], [ -48.7982643, -26.361612990000015 ], [ -48.797536379999976, -26.362094039999988 ], [ -48.79723434000001, -26.362463040000012 ], [ -48.79716306, -26.362783979999989 ], [ -48.79734126000001, -26.363313 ], [ -48.79774914, -26.36379396 ], [ -48.797891340000014, -26.36430696 ], [ -48.79783806, -26.364996 ], [ -48.79605634, -26.366676660000014 ], [ -48.799024, -26.366712 ], [ -48.799877, -26.366827 ], [ -48.801062, -26.368261 ], [ -48.80217, -26.368746 ], [ -48.802755, -26.369339 ], [ -48.803284159999983, -26.37045071 ], [ -48.804887, -26.372244 ], [ -48.807181139999983, -26.371996020000012 ], [ -48.81032322, -26.371951020000012 ] ] ] ] } }
]
}
