{
"type": "FeatureCollection",
"name": "petrópolis",
"crs": { "type": "name", "properties": { "name": "urn:ogc:def:crs:EPSG::4674" } },
"features": [
{ "type": "Feature", "properties": { "bairro": "Petrópolis" }, "geometry": { "type": "MultiPolygon", "coordinates": [ [ [ [ -48.822923279999983, -26.35116997 ], [ -48.822787089999984, -26.35216281000001 ], [ -48.8225484, -26.35270609 ], [ -48.822074339999979, -26.353212030000016 ], [ -48.821805970000014, -26.35319226 ], [ -48.821280259999988, -26.352625549999971 ], [ -48.82014056, -26.35227216 ], [ -48.81990138, -26.35517997 ], [ -48.81964326, -26.35607097 ], [ -48.819680339999984, -26.35698096 ], [ -48.81808014, -26.35815303 ], [ -48.8180751, -26.359382969999988 ], [ -48.8197041, -26.35926804 ], [ -48.82064226, -26.358561 ], [ -48.8210253, -26.35794 ], [ -48.821682299999978, -26.35779501 ], [ -48.82190622, -26.357607 ], [ -48.82231734, -26.356526009999989 ], [ -48.823059300000011, -26.35595901 ], [ -48.825173220000011, -26.355429 ], [ -48.8259811, -26.354735240000011 ], [ -48.826976219999985, -26.354624590000011 ], [ -48.82709658, -26.354823020000012 ], [ -48.827717899999982, -26.354826270000022 ], [ -48.83021376, -26.35462526 ], [ -48.830232689999988, -26.354816020000012 ], [ -48.83282386, -26.354611410000011 ], [ -48.834295100000013, -26.354255659999978 ], [ -48.838520979999977, -26.35452049 ], [ -48.83842829, -26.35382294 ], [ -48.83857314, -26.351566019999989 ], [ -48.84195853, -26.34714833000001 ], [ -48.84213318, -26.34494191000001 ], [ -48.842652419999979, -26.3443291 ], [ -48.842871069999987, -26.343716960000013 ], [ -48.842882649999979, -26.34128067 ], [ -48.8412141, -26.339237010000012 ], [ -48.84080334, -26.33935599 ], [ -48.84040084999998, -26.33928464 ], [ -48.83948097, -26.338861969999989 ], [ -48.837578099999988, -26.34040701 ], [ -48.837340139999988, -26.34051699 ], [ -48.83604596, -26.34040813 ], [ -48.83474037, -26.341064020000015 ], [ -48.83250256, -26.343235630000024 ], [ -48.832200199999981, -26.343356599999986 ], [ -48.83176915, -26.34258112 ], [ -48.83129532, -26.342114359999982 ], [ -48.83005417, -26.34279462000001 ], [ -48.82648134, -26.339022069999988 ], [ -48.82627327, -26.339154170000032 ], [ -48.82553514, -26.33836683 ], [ -48.82340634, -26.340084 ], [ -48.82140911, -26.340885090000011 ], [ -48.821434209999978, -26.34198879 ], [ -48.822301840000016, -26.342967040000016 ], [ -48.822408039999985, -26.34432911 ], [ -48.82378604, -26.34482031 ], [ -48.823910829999981, -26.34504068 ], [ -48.8238756, -26.345942250000014 ], [ -48.823394829999977, -26.34667415 ], [ -48.823275009999989, -26.34796951 ], [ -48.82342723, -26.34865675 ], [ -48.82387484, -26.349318360000016 ], [ -48.824700280000016, -26.349556599999989 ], [ -48.82477052, -26.34972662 ], [ -48.824804529999987, -26.35023516 ], [ -48.824514060000013, -26.35049898 ], [ -48.82405218, -26.350714979999989 ], [ -48.82298622, -26.350866990000029 ], [ -48.822923279999983, -26.35116997 ] ] ] ] } }
]
}
