{
"type": "FeatureCollection",
"name": "pirabeiraba",
"crs": { "type": "name", "properties": { "name": "urn:ogc:def:crs:EPSG::4674" } },
"features": [
{ "type": "Feature", "properties": { "bairro": "Pirabeiraba" }, "geometry": { "type": "MultiPolygon", "coordinates": [ [ [ [ -48.89880726, -26.230148010000015 ], [ -48.898434299999977, -26.230815 ], [ -48.90156414, -26.231588009999985 ], [ -48.9026571, -26.231723010000014 ], [ -48.90760926, -26.23171203 ], [ -48.91117836, -26.23072315000001 ], [ -48.912661139999983, -26.230647959999988 ], [ -48.913858139999981, -26.23021596 ], [ -48.91448922, -26.23012299 ], [ -48.91844135, -26.23125676 ], [ -48.91799526, -26.228619 ], [ -48.916943339999989, -26.22801204000001 ], [ -48.91654734, -26.227251 ], [ -48.916243140000013, -26.22329001000001 ], [ -48.9162561, -26.22257802 ], [ -48.916684139999987, -26.22152304 ], [ -48.917131259999984, -26.220986010000018 ], [ -48.91747938, -26.22015999 ], [ -48.91705926, -26.219961 ], [ -48.91651818, -26.219928959999983 ], [ -48.916411259999983, -26.21932803 ], [ -48.91815222, -26.21784699 ], [ -48.91834122, -26.21736198 ], [ -48.918261299999976, -26.21680596 ], [ -48.91652538, -26.21331801 ], [ -48.91592418, -26.212374 ], [ -48.915809339999988, -26.21099997 ], [ -48.91442118, -26.20593504 ], [ -48.91463718, -26.20551303 ], [ -48.9146433, -26.20515096 ], [ -48.91428114, -26.20444698 ], [ -48.9141663, -26.20385901 ], [ -48.91441722, -26.203824990000019 ], [ -48.91475525, -26.203992619999987 ], [ -48.913839719999984, -26.19531901 ], [ -48.912001259999982, -26.19500499 ], [ -48.908074719999988, -26.19486732 ], [ -48.9065091, -26.196192 ], [ -48.90467238, -26.197242030000023 ], [ -48.90372234, -26.19757899 ], [ -48.903150719999985, -26.197612020000019 ], [ -48.90296508, -26.1979833 ], [ -48.902008319999986, -26.206108560000015 ], [ -48.901365729999988, -26.206351319999978 ], [ -48.90133717, -26.20682256 ], [ -48.90116581, -26.20683684 ], [ -48.90086593, -26.20735091 ], [ -48.89978066, -26.20767935 ], [ -48.89886675, -26.20880746 ], [ -48.89890958, -26.20910734 ], [ -48.89870967, -26.209649980000012 ], [ -48.89849547, -26.209807059999989 ], [ -48.89860971, -26.210078370000019 ], [ -48.89979494, -26.210692410000011 ], [ -48.89643916, -26.21656145 ], [ -48.90095161, -26.218717709999982 ], [ -48.90039306, -26.21949399 ], [ -48.89866683000001, -26.2209311 ], [ -48.89480622, -26.22373398 ], [ -48.894348299999976, -26.22425796 ], [ -48.89405442, -26.22485807 ], [ -48.895471139999977, -26.22541896 ], [ -48.89747634, -26.225298990000017 ], [ -48.9005493, -26.227233 ], [ -48.89880726, -26.230148010000015 ] ] ] ] } }
]
}
