{
"type": "FeatureCollection",
"name": "profipo",
"crs": { "type": "name", "properties": { "name": "urn:ogc:def:crs:EPSG::4674" } },
"features": [
{ "type": "Feature", "properties": { "bairro": "Profipo" }, "geometry": { "type": "MultiPolygon", "coordinates": [ [ [ [ -48.8434191, -26.37690399 ], [ -48.84245214, -26.37554202 ], [ -48.84225630000001, -26.37539001 ], [ -48.841566179999987, -26.37526302000002 ], [ -48.841001339999984, -26.374743989999981 ], [ -48.84046421999998, -26.374527990000015 ], [ -48.83973918, -26.37448704 ], [ -48.83782401, -26.374883010000016 ], [ -48.84201233, -26.37637521000001 ], [ -48.842528409999986, -26.376811890000013 ], [ -48.84294494, -26.37792264 ], [ -48.8434191, -26.37690399 ] ] ], [ [ [ -48.84269287, -26.35962295 ], [ -48.841777140000012, -26.36080002 ], [ -48.839333099999983, -26.361686969999983 ], [ -48.83938206, -26.36197902 ], [ -48.83839413, -26.36308289 ], [ -48.841828259999986, -26.366472 ], [ -48.842476629999986, -26.366777070000015 ], [ -48.84327114, -26.36687304 ], [ -48.84354303, -26.36682514000001 ], [ -48.843243309999984, -26.365706860000014 ], [ -48.84423522, -26.36523504 ], [ -48.845711819999984, -26.365121800000015 ], [ -48.84577401, -26.36472277 ], [ -48.84611727, -26.36431463 ], [ -48.84365413, -26.36076044 ], [ -48.84269287, -26.35962295 ] ] ] ] } }
]
}
