{
"type": "FeatureCollection",
"name": "rio_bonito",
"crs": { "type": "name", "properties": { "name": "urn:ogc:def:crs:EPSG::4674" } },
"features": [
{ "type": "Feature", "properties": { "bairro": "Rio Bonito" }, "geometry": { "type": "MultiPolygon", "coordinates": [ [ [ [ -48.903596339999986, -26.17449804 ], [ -48.90596118, -26.179602030000016 ], [ -48.9071751, -26.18273601000001 ], [ -48.9077133, -26.18527401 ], [ -48.90196806, -26.185970969999989 ], [ -48.903345059999985, -26.191484009999986 ], [ -48.90918822, -26.19109701 ], [ -48.909477299999985, -26.194858020000016 ], [ -48.912001259999982, -26.19500499 ], [ -48.913839719999984, -26.19531901 ], [ -48.913008179999984, -26.18687304 ], [ -48.91218522, -26.18227701 ], [ -48.91170318, -26.18184402 ], [ -48.911376299999979, -26.18121798 ], [ -48.91890138, -26.177886990000015 ], [ -48.917631299999982, -26.17579998 ], [ -48.91220826, -26.17782003 ], [ -48.9122133, -26.177567040000014 ], [ -48.909984179999988, -26.17425603 ], [ -48.91009614, -26.156949029999989 ], [ -48.9113412, -26.151394710000012 ], [ -48.91160647, -26.149213550000013 ], [ -48.91154752, -26.14803455 ], [ -48.917396220000015, -26.148149010000012 ], [ -48.91744518, -26.145099 ], [ -48.91092738, -26.14499901000001 ], [ -48.91014834, -26.14434201 ], [ -48.90305706, -26.135205030000012 ], [ -48.8977593, -26.13683196 ], [ -48.895180259999989, -26.138041020000014 ], [ -48.89409522, -26.139753990000013 ], [ -48.89565906, -26.14062204 ], [ -48.896820060000017, -26.140961970000014 ], [ -48.89837705999998, -26.14227597 ], [ -48.898811219999978, -26.145135 ], [ -48.90037038, -26.14629996 ], [ -48.90085422, -26.14819203 ], [ -48.90088626, -26.1504 ], [ -48.90038548, -26.15413714 ], [ -48.900259709999979, -26.158896890000019 ], [ -48.89629447, -26.15913136 ], [ -48.8962502, -26.161985619999989 ], [ -48.901020089999982, -26.16191478 ], [ -48.900689499999984, -26.16500812000001 ], [ -48.898328169999985, -26.16576375 ], [ -48.896226579999983, -26.166094330000014 ], [ -48.896169179999987, -26.168484960000015 ], [ -48.898037219999985, -26.16844599 ], [ -48.900280379999984, -26.16797898 ], [ -48.9012171, -26.16763797 ], [ -48.903596339999986, -26.17449804 ] ] ] ] } }
]
}
