{
"type": "FeatureCollection",
"name": "saguaçu",
"crs": { "type": "name", "properties": { "name": "urn:ogc:def:crs:EPSG::4674" } },
"features": [
{ "type": "Feature", "properties": { "bairro": "Saguaçu" }, "geometry": { "type": "MultiPolygon", "coordinates": [ [ [ [ -48.83204341, -26.297071110000015 ], [ -48.83243514, -26.29743597 ], [ -48.83188506, -26.299982970000013 ], [ -48.83271126, -26.29970604 ], [ -48.83320914, -26.299730969999978 ], [ -48.83337438, -26.29990503 ], [ -48.8333193, -26.300802959999988 ], [ -48.8329053, -26.301475980000017 ], [ -48.83257338, -26.302698 ], [ -48.8326191, -26.30330604 ], [ -48.83348526, -26.304045030000015 ], [ -48.83351226, -26.30511702 ], [ -48.83392734, -26.30551599 ], [ -48.83470026, -26.305865010000012 ], [ -48.83516934, -26.30589003 ], [ -48.836274179999975, -26.305416 ], [ -48.837765299999987, -26.30394504 ], [ -48.839425060000011, -26.30530425000002 ], [ -48.839865179999975, -26.30505303 ], [ -48.84042534, -26.30442402 ], [ -48.840821339999984, -26.30316501 ], [ -48.841039139999985, -26.30141901 ], [ -48.841586339999978, -26.300973959999986 ], [ -48.84188226, -26.29987803 ], [ -48.84208638, -26.29549602 ], [ -48.842458259999987, -26.294976 ], [ -48.842578139999986, -26.29452897 ], [ -48.84279018, -26.28557397 ], [ -48.844676220000011, -26.283357 ], [ -48.84757314, -26.27893899 ], [ -48.84841626, -26.277390990000015 ], [ -48.84958734, -26.27745903 ], [ -48.85008042, -26.27257761 ], [ -48.84944406, -26.27273799 ], [ -48.84890406000001, -26.272988010000017 ], [ -48.8486643, -26.273304990000014 ], [ -48.8484951, -26.27329599 ], [ -48.84571122, -26.272305 ], [ -48.845297219999985, -26.26980498 ], [ -48.84400806, -26.270523 ], [ -48.84105138000001, -26.27269803 ], [ -48.83940726, -26.27046 ], [ -48.83877834, -26.26701903 ], [ -48.83666406, -26.267324040000013 ], [ -48.83620506, -26.26758297 ], [ -48.835509179999988, -26.268165 ], [ -48.83072405999998, -26.273450969999985 ], [ -48.832017180000022, -26.274006 ], [ -48.83292906, -26.27474796 ], [ -48.834404339999978, -26.27650296 ], [ -48.835271219999989, -26.27806401 ], [ -48.83636706, -26.27934804 ], [ -48.83684226, -26.28017901 ], [ -48.83119206, -26.28196101 ], [ -48.82687026, -26.292252960000013 ], [ -48.83204341, -26.297071110000015 ] ] ] ] } }
]
}
