{
"type": "FeatureCollection",
"name": "santo_antônio",
"crs": { "type": "name", "properties": { "name": "urn:ogc:def:crs:EPSG::4674" } },
"features": [
{ "type": "Feature", "properties": { "bairro": "Santo Antônio" }, "geometry": { "type": "MultiPolygon", "coordinates": [ [ [ [ -48.854488419999988, -26.277723600000016 ], [ -48.8633721, -26.278230960000013 ], [ -48.863074379999986, -26.27351001 ], [ -48.862464229999979, -26.26905862 ], [ -48.862136219999989, -26.268111 ], [ -48.86153538, -26.26408998 ], [ -48.861627169999984, -26.26351706 ], [ -48.85763118, -26.262018 ], [ -48.85426682, -26.26013063000001 ], [ -48.85136322000001, -26.25949503 ], [ -48.84958734, -26.27745903 ], [ -48.854488419999988, -26.277723600000016 ] ] ] ] } }
]
}
