{
"type": "FeatureCollection",
"name": "santa_catarina",
"crs": { "type": "name", "properties": { "name": "urn:ogc:def:crs:EPSG::4674" } },
"features": [
{ "type": "Feature", "properties": { "bairro": "Santa Catarina" }, "geometry": { "type": "MultiPolygon", "coordinates": [ [ [ [ -48.8434191, -26.37690399 ], [ -48.84294494, -26.37792264 ], [ -48.84491213, -26.382074540000016 ], [ -48.845168379999983, -26.38298432 ], [ -48.8453012, -26.38603458 ], [ -48.84808434, -26.385174 ], [ -48.8490153, -26.384766029999987 ], [ -48.84975438, -26.384112 ], [ -48.85102914, -26.38245798 ], [ -48.8513661, -26.381816010000012 ], [ -48.851388060000012, -26.379019980000013 ], [ -48.851705219999978, -26.37821799 ], [ -48.85498806, -26.37482301 ], [ -48.855873299999985, -26.37347004 ], [ -48.85664334, -26.37103401000001 ], [ -48.85740114, -26.367788970000017 ], [ -48.85864493, -26.364300070000013 ], [ -48.85875698, -26.360009530000021 ], [ -48.85859634, -26.35446798 ], [ -48.85842960999998, -26.35324961 ], [ -48.85715008, -26.34844726 ], [ -48.841329299999977, -26.347947030000011 ], [ -48.83857314, -26.351566019999989 ], [ -48.83842829, -26.35382294 ], [ -48.839333099999983, -26.361686969999983 ], [ -48.841777140000012, -26.36080002 ], [ -48.84269287, -26.35962295 ], [ -48.84365413, -26.36076044 ], [ -48.84611727, -26.36431463 ], [ -48.84577401, -26.36472277 ], [ -48.845711819999984, -26.365121800000015 ], [ -48.84423522, -26.36523504 ], [ -48.843243309999984, -26.365706860000014 ], [ -48.84354303, -26.36682514000001 ], [ -48.84280018, -26.366862220000016 ], [ -48.841828259999986, -26.366472 ], [ -48.83839413, -26.36308289 ], [ -48.8373869, -26.36429063 ], [ -48.836564510000017, -26.36627062 ], [ -48.83604758, -26.36673429 ], [ -48.83456526, -26.36751798 ], [ -48.832508469999972, -26.36966371 ], [ -48.832045829999984, -26.37053739 ], [ -48.83191707000001, -26.37106244 ], [ -48.83202107, -26.37164064 ], [ -48.83242122999998, -26.373191919999986 ], [ -48.83374626, -26.37395496 ], [ -48.83586414, -26.374282020000013 ], [ -48.83771418, -26.374913010000018 ], [ -48.83973918, -26.37448704 ], [ -48.84046421999998, -26.374527990000015 ], [ -48.841001339999984, -26.374743989999981 ], [ -48.841566179999987, -26.37526302000002 ], [ -48.84225630000001, -26.37539001 ], [ -48.84245214, -26.37554202 ], [ -48.8434191, -26.37690399 ] ] ] ] } }
]
}
