{
"type": "FeatureCollection",
"name": "são_marcos",
"crs": { "type": "name", "properties": { "name": "urn:ogc:def:crs:EPSG::4674" } },
"features": [
{ "type": "Feature", "properties": { "bairro": "São Marcos" }, "geometry": { "type": "MultiPolygon", "coordinates": [ [ [ [ -48.86712574, -26.32357191 ], [ -48.864490260000011, -26.32717197 ], [ -48.88594318, -26.326142660000023 ], [ -48.88786240000001, -26.326161479999978 ], [ -48.88879226, -26.31576701 ], [ -48.889389299999984, -26.31291003 ], [ -48.88953834, -26.311483979999988 ], [ -48.89008914, -26.309907 ], [ -48.891115139999982, -26.30833803 ], [ -48.892397099999982, -26.30704797 ], [ -48.892998299999988, -26.30542896 ], [ -48.89321785, -26.303156050000013 ], [ -48.8952903, -26.30325967000001 ], [ -48.895459259999988, -26.299951020000012 ], [ -48.89247234, -26.29971702 ], [ -48.88696506, -26.299557990000014 ], [ -48.886094220000011, -26.30016603 ], [ -48.88570506, -26.300270969999989 ], [ -48.8831991, -26.30001303 ], [ -48.88303134, -26.30023803 ], [ -48.88274838, -26.30152197 ], [ -48.88211514, -26.302971960000015 ], [ -48.878017259999972, -26.309111040000019 ], [ -48.876739259999987, -26.31041802 ], [ -48.87417210000001, -26.31212802 ], [ -48.873653339999983, -26.31261402 ], [ -48.87325014, -26.31347496 ], [ -48.873155099999984, -26.315601030000018 ], [ -48.872858099999988, -26.31661803 ], [ -48.86712574, -26.32357191 ] ] ] ] } }
]
}
