{
"type": "FeatureCollection",
"name": "ulysses_guimarães",
"crs": { "type": "name", "properties": { "name": "urn:ogc:def:crs:EPSG::4674" } },
"features": [
{ "type": "Feature", "properties": { "bairro": "Ulysses Guimarães" }, "geometry": { "type": "MultiPolygon", "coordinates": [ [ [ [ -48.78665874, -26.3306735 ], [ -48.788574179999983, -26.33281704 ], [ -48.78887730000001, -26.334207 ], [ -48.78892338, -26.33542803 ], [ -48.78908106, -26.33572098 ], [ -48.790659299999987, -26.337468960000013 ], [ -48.79288626000001, -26.33854698 ], [ -48.796549259999985, -26.33445297 ], [ -48.798326219999979, -26.33307003 ], [ -48.802601670000016, -26.330160880000019 ], [ -48.80237406, -26.32969399000001 ], [ -48.80260750999998, -26.32943719 ], [ -48.80232154, -26.32899948 ], [ -48.79562446, -26.32114816 ], [ -48.79554506, -26.320830540000014 ], [ -48.79498072, -26.32062636 ], [ -48.79517923, -26.3201556 ], [ -48.79460732999997, -26.32038188 ], [ -48.79466572, -26.3197304 ], [ -48.79500682, -26.319377009999986 ], [ -48.79479786000001, -26.31887304 ], [ -48.79430925, -26.31898674 ], [ -48.79428467, -26.31876549 ], [ -48.79433691, -26.31864564000001 ], [ -48.795320259999983, -26.31848584 ], [ -48.79543396, -26.31819084 ], [ -48.795320259999983, -26.31785281 ], [ -48.79552923, -26.31719212 ], [ -48.79547391, -26.3170231 ], [ -48.79478864, -26.316537569999987 ], [ -48.794757910000015, -26.31635012 ], [ -48.79494843, -26.316248710000014 ], [ -48.79549406000001, -26.31661454 ], [ -48.79562756, -26.31654372 ], [ -48.7958396, -26.31609199 ], [ -48.79578428, -26.3158062 ], [ -48.795639849999986, -26.31572938 ], [ -48.79479171, -26.31556036 ], [ -48.793723879999988, -26.315027240000013 ], [ -48.78549865, -26.31524329 ], [ -48.785194859999983, -26.31567799 ], [ -48.78539586, -26.3161238 ], [ -48.78625828, -26.31707838 ], [ -48.786219340000024, -26.31740657 ], [ -48.7855787, -26.317828360000014 ], [ -48.784589499999989, -26.31792389000001 ], [ -48.783627170000017, -26.317545640000013 ], [ -48.78297363, -26.317585930000021 ], [ -48.78288734, -26.31830215 ], [ -48.7818972, -26.31908092 ], [ -48.78193058, -26.319203290000015 ], [ -48.78268813, -26.31944905000001 ], [ -48.78316547, -26.31982074 ], [ -48.78405549, -26.32131708 ], [ -48.78401456, -26.321545920000013 ], [ -48.783704499999985, -26.321839859999987 ], [ -48.783211269999981, -26.32208121 ], [ -48.78298912, -26.32209569 ], [ -48.782660859999986, -26.32187685000001 ], [ -48.782660859999986, -26.32136623 ], [ -48.782463109999988, -26.32122848 ], [ -48.7816747, -26.32180103 ], [ -48.78096267999998, -26.322084719999989 ], [ -48.78158489, -26.32370801 ], [ -48.78146332, -26.324120630000014 ], [ -48.781068369999986, -26.3246157 ], [ -48.78104056, -26.32501621 ], [ -48.78122777, -26.32545175 ], [ -48.782203139999986, -26.32636236 ], [ -48.782359740000011, -26.32697254 ], [ -48.78266723, -26.32710215 ], [ -48.78515022, -26.329455 ], [ -48.785871299999975, -26.329905 ], [ -48.78665874, -26.3306735 ] ] ] ] } }
]
}
