{
"type": "FeatureCollection",
"name": "vila_nova",
"crs": { "type": "name", "properties": { "name": "urn:ogc:def:crs:EPSG::4674" } },
"features": [
{ "type": "Feature", "properties": { "bairro": "Vila Nova" }, "geometry": { "type": "MultiPolygon", "coordinates": [ [ [ [ -48.90761174, -26.301249870000017 ], [ -48.916160359999985, -26.29536236 ], [ -48.917363659999985, -26.29440877 ], [ -48.918535309999982, -26.29383596 ], [ -48.92040349, -26.29364089 ], [ -48.92285603, -26.294175930000016 ], [ -48.92407098, -26.29457927 ], [ -48.92485708, -26.2942031 ], [ -48.926048979999983, -26.293860670000019 ], [ -48.926093429999987, -26.293022720000018 ], [ -48.92707955, -26.29295522000001 ], [ -48.92852895, -26.266147560000018 ], [ -48.9196203, -26.26583499 ], [ -48.91914524, -26.26522266 ], [ -48.91876926, -26.26508097 ], [ -48.91823322, -26.265168 ], [ -48.916574339999983, -26.26589196 ], [ -48.9158781, -26.265915989999986 ], [ -48.91507926, -26.26571403 ], [ -48.913210139999983, -26.265570030000017 ], [ -48.9128271, -26.26460703 ], [ -48.912316260000011, -26.26443504 ], [ -48.911056260000016, -26.26473303 ], [ -48.91021026, -26.26537104 ], [ -48.90995034, -26.265421979999982 ], [ -48.90618114, -26.265294 ], [ -48.905006099999987, -26.26544097 ], [ -48.90161526, -26.265301019999988 ], [ -48.89997618, -26.264843010000011 ], [ -48.89913738, -26.26556202 ], [ -48.898577220000014, -26.265843 ], [ -48.89812434000001, -26.26587801 ], [ -48.89702634, -26.266661010000032 ], [ -48.89630418, -26.267367959999987 ], [ -48.895390140000018, -26.26864002 ], [ -48.893543340000015, -26.274441960000015 ], [ -48.89295006, -26.275913010000014 ], [ -48.885077219999978, -26.28972603 ], [ -48.884203139999968, -26.29299204 ], [ -48.88303134, -26.30023803 ], [ -48.8831991, -26.30001303 ], [ -48.8834691, -26.29996101 ], [ -48.88570506, -26.300270969999989 ], [ -48.886094220000011, -26.30016603 ], [ -48.88696506, -26.299557990000014 ], [ -48.89247234, -26.29971702 ], [ -48.895459259999988, -26.299951020000012 ], [ -48.8952903, -26.30325967000001 ], [ -48.90146935, -26.30353631 ], [ -48.904374529999984, -26.30351873 ], [ -48.90761174, -26.301249870000017 ] ] ] ] } }
]
}
