{
"type": "FeatureCollection",
"name": "vila_cubatão",
"crs": { "type": "name", "properties": { "name": "urn:ogc:def:crs:EPSG::4674" } },
"features": [
{ "type": "Feature", "properties": { "bairro": "Vila Cubatão" }, "geometry": { "type": "MultiPolygon", "coordinates": [ [ [ [ -48.77326806, -26.274239009999985 ], [ -48.77222622, -26.273918969999986 ], [ -48.77118438, -26.27328303 ], [ -48.770169179999989, -26.27223903 ], [ -48.77000034, -26.27488602 ], [ -48.767943299999978, -26.274733020000024 ], [ -48.76656306, -26.290254960000013 ], [ -48.767380259999989, -26.290152989999989 ], [ -48.76802825999998, -26.290332 ], [ -48.7685913, -26.29068804 ], [ -48.76969038, -26.290815030000012 ], [ -48.76988838, -26.29106901 ], [ -48.77016918, -26.290815030000012 ], [ -48.77126826, -26.290764 ], [ -48.77211318, -26.29109502 ], [ -48.773240339999987, -26.29106901 ], [ -48.77360718, -26.29132398 ], [ -48.77492838, -26.29156401 ], [ -48.774772409999976, -26.290908240000011 ], [ -48.77411822, -26.290724539999989 ], [ -48.774229039999987, -26.28968899 ], [ -48.77232138, -26.289722280000014 ], [ -48.77326806, -26.274239009999985 ] ] ] ] } }
]
}
