{
"type": "FeatureCollection",
"name": "zona_industrial_2",
"crs": { "type": "name", "properties": { "name": "urn:ogc:def:crs:EPSG::4674" } },
"features": [
{ "type": "Feature", "properties": { "bairro": "Zona Industrial 2" }, "geometry": { "type": "MultiPolygon", "coordinates": [ [ [ [ -48.80868234, -26.284291020000012 ], [ -48.80476014, -26.28831402 ], [ -48.79917785, -26.29347496 ], [ -48.8055914, -26.30497297 ], [ -48.80736329999997, -26.303301 ], [ -48.809844059999989, -26.299431 ], [ -48.810727139999976, -26.298335970000011 ], [ -48.814089179999989, -26.295130980000014 ], [ -48.81466338, -26.295380009999988 ], [ -48.81599106, -26.29452798 ], [ -48.81520734, -26.29403802 ], [ -48.8133591, -26.291396970000012 ], [ -48.811194060000012, -26.28913896 ], [ -48.80982534, -26.284906980000017 ], [ -48.809486219999982, -26.28450504 ], [ -48.80868234, -26.284291020000012 ] ] ] ] } }
]
}
