{
"type": "FeatureCollection",
"name": "zona_industrial_1",
"crs": { "type": "name", "properties": { "name": "urn:ogc:def:crs:EPSG::4674" } },
"features": [
{ "type": "Feature", "properties": { "bairro": "Zona Industrial 1" }, "geometry": { "type": "MultiPolygon", "coordinates": [ [ [ [ -48.89405442, -26.22485807 ], [ -48.893269019999984, -26.22622894 ], [ -48.89228371, -26.226942940000015 ], [ -48.882443020000011, -26.23010866 ], [ -48.889345309999989, -26.23659367 ], [ -48.892625339999988, -26.238816990000025 ], [ -48.894438299999976, -26.24048802 ], [ -48.894948059999983, -26.24119299 ], [ -48.89586138, -26.243001990000018 ], [ -48.89649822, -26.24358996 ], [ -48.89900922, -26.245017 ], [ -48.89936022, -26.24546097 ], [ -48.899641379999984, -26.24614002 ], [ -48.89968818, -26.247911039999977 ], [ -48.90415434, -26.24801301 ], [ -48.908948100000018, -26.24987304 ], [ -48.9099003, -26.25153903 ], [ -48.910391340000011, -26.25189399000001 ], [ -48.911140140000015, -26.251957980000014 ], [ -48.91166718, -26.25184098 ], [ -48.91243506, -26.25141996 ], [ -48.91420914, -26.251272 ], [ -48.91511706, -26.251569990000021 ], [ -48.91638534, -26.25253497 ], [ -48.9187401, -26.253258030000023 ], [ -48.92463833999998, -26.25346899 ], [ -48.92418618, -26.25201702 ], [ -48.924496139999988, -26.25114501 ], [ -48.925051260000011, -26.250237 ], [ -48.925034339999989, -26.24905503 ], [ -48.924886379999982, -26.24875002 ], [ -48.92483022, -26.24795298 ], [ -48.925565339999984, -26.24709204 ], [ -48.925552380000013, -26.246307959999989 ], [ -48.9259041, -26.245566 ], [ -48.92580438, -26.245065959999987 ], [ -48.92526834, -26.244455040000013 ], [ -48.92526726, -26.24411502 ], [ -48.92477514, -26.242866 ], [ -48.924892139999983, -26.24251698 ], [ -48.92542638, -26.24198598 ], [ -48.9256971, -26.24149404 ], [ -48.926325299999981, -26.235684 ], [ -48.926280299999981, -26.235295020000034 ], [ -48.92587134, -26.23451202 ], [ -48.92394426, -26.23233303 ], [ -48.92018226, -26.231797979999989 ], [ -48.91599114, -26.23047399 ], [ -48.91448922, -26.23012299 ], [ -48.913858139999981, -26.23021596 ], [ -48.912661139999983, -26.230647959999988 ], [ -48.91117836, -26.23072315000001 ], [ -48.90760926, -26.23171203 ], [ -48.9026571, -26.231723010000014 ], [ -48.90156414, -26.231588009999985 ], [ -48.898434299999977, -26.230815 ], [ -48.9005493, -26.227233 ], [ -48.89747634, -26.225298990000017 ], [ -48.895471139999977, -26.22541896 ], [ -48.89405442, -26.22485807 ] ] ] ] } }
]
}
